icao,lat,lon,type,size,name,city,state,country
00AL,34.8648,-86.7703,civil,701,Epps Airpark,Harvest,Alabama,United States
00AZ,34.3056,-112.165,civil,518,Cordes,Cordes,Arizona,United States
00B,38.9147,-76.5047,water,999,South River,Edgewater,Maryland,United States
00C,37.2032,-107.869,civil,1528,Animas,Durango,Colorado,United States
00CA,35.3505,-116.888,civil,1829,Goldstone (GTS),Barstow,California,United States
00CL,38.6382,-121.515,civil,823,Natomas Field,Sacramento,California,United States
00CO,40.6222,-104.344,civil,1189,Cass Field,Briggsdale,Colorado,United States
00FA,28.6455,-82.219,civil,975,Grass Patch,Bushnell,Florida,United States
00FL,27.2309,-80.9692,civil,1247,River Oak,Okeechobee,Florida,United States
00GA,33.7675,-84.0683,civil,792,Lt World,Lithonia,Georgia,United States
00IL,41.9784,-89.5604,civil,762,Hammer,Polo,Illinois,United States
00IS,40.0256,-89.1229,civil,488,Hayenga's Cant Find Farms,Kings,Illinois,United States
00KS,38.7278,-94.9305,civil,792,Hayden Farm,Gardner,Kansas,United States
00M,31.9538,-89.2345,civil,914,Thigpen,Bay Springs,Mississippi,United States
00MD,38.7571,-75.7538,civil,518,Slater Fld,Federalsburg,Maryland,United States
00MN,46.3,-95.7003,civil,899,Battle Lake Muni,Battle Lake,Minnesota,United States
00MO,37.2028,-94.4124,civil,732,Cooper Flying Service,Alba,Missouri,United States
00MT,48.5375,-109.705,civil,610,Sands Ranch,Havre,Montana,United States
00N,39.4732,-75.1852,civil,579,Bucks,Bridgeton,New Jersey,United States
00NC,36.0852,-78.3714,civil,808,North Raleigh,Louisburg,North Carolina,United States
00NY,42.9001,-77.4997,civil,716,Weiss Airfield,West Bloomfield,New York,United States
00OH,41.5909,-84.1422,civil,821,Exit 3,Wauseon,Ohio,United States
00PS,40.3778,-77.3653,civil,945,Thomas Field,Loysville,Pennsylvania,United States
00Q,39.0749,-121.918,civil,549,Thayer Aviation,Grimes,California,United States
00R,30.6859,-95.0179,civil,1128,Livingston Mun,Livingston,Texas,United States
00S,44.1832,-122.089,civil,792,McKenzie Bridge State,McKenzie Bridge,Oregon,United States
00TN,35.5159,-85.9536,civil,549,Ragsdale Road,Manchester,Tennessee,United States
00TS,32.6076,-97.242,civil,366,Alpine Range,Everman,Texas,United States
00UT,37.2478,-112.822,civil,1036,Clear Creek Ranch,Kanab,Utah,United States
00V,38.9458,-104.57,civil,3530,Meadow Lake,Colorado Springs,Colorado,United States
00VI,36.6633,-80.4995,civil,457,Groundhog Mountain,Hillsville,Virginia,United States
00W,46.6735,-117.443,civil,1036,Lower Granite State,Colfax,Washington,United States
00WA,47.1784,-122.772,civil,337,Howell,Longbranch,Washington,United States
00WI,44.3043,-89.0501,civil,305,Northern Lite,Waupaca,Wisconsin,United States
00WV,38.8289,-79.8661,civil,549,Lazy J. Aerodrome,Beverly,West Virginia,United States
00WY,41.2589,-105.589,civil,1951,Evans,Laramie,Wyoming,United States
00XS,33.0334,-101.934,civil,450,L P Askew Farms,O'Donnell,Texas,United States
00Y,45.5505,-96.4514,civil,760,Kapaun-Wilson,Graceville,Minnesota,United States
01A,62.9436,-152.27,civil,305,Purkeypile,Purkeypile,Alaska,United States
01AL,32.946,-86.5139,civil,762,Ware Island,Clanton,Alabama,United States
01C,43.3417,-85.775,civil,767,Grant,Grant,Michigan,United States
01CL,38.7999,-120.734,civil,945,Swansboro Country,Placerville,California,United States
01FA,28.5894,-81.1442,civil,1067,Rybolt Ranch,Orlando,Florida,United States
01FL,28.7819,-81.1592,civil,914,Cedar Knoll Flying Ranch,Geneva,Florida,United States
01G,42.7413,-78.0521,civil,1625,Perry-Warsaw,Perry,New York,United States
01IA,41.6611,-90.7413,civil,785,Stender,Maysville,Iowa,United States
01ID,43.6721,-116.771,civil,762,Frank Field,Caldwell,Idaho,United States
01II,39.885,-86.5067,civil,640,Myers Field,Lizton,Indiana,United States
01IS,39.0162,-90.3182,civil,396,William E. Koenig,Dow,Illinois,United States
01J,30.688,-81.9059,civil,951,Hilliard,Hilliard,Florida,United States
01K,37.0361,-97.5864,civil,750,Caldwell Mun,Caldwell,Kansas,United States
01KS,38.5406,-97.0033,civil,732,Flying N Ranch,Lost Springs,Kansas,United States
01LA,32.639,-91.7737,civil,610,Barham,Oak Ridge,Louisiana,United States
01LL,38.1258,-89.4639,civil,610,Schumaier Rla,Pinckneyville,Illinois,United States
01LS,30.706,-91.0774,civil,549,Country Breeze,Country Breeze,Louisiana,United States
01M,34.4917,-88.2011,civil,914,Tishomingo Co,Belmont,Mississippi,United States
01MD,38.9992,-76.456,water,999,Annapolis,Annapolis,Maryland,United States
01ME,46.7789,-68.5003,water,3048,Saint Peter's,Portage Lake,Maine,United States
01MN,47.8996,-92.5574,water,6001,Barnes,Cook,Minnesota,United States
01MT,48.7891,-114.88,civil,1524,Crystal Lakes Resort,Fortine,Montana,United States
01NC,34.4753,-77.5814,civil,610,Topsail Airpark,Holly Ridge,North Carolina,United States
01NE,40.8436,-100.653,civil,838,Detour,Wellfleet,Nebraska,United States
01NH,43.6445,-72.087,civil,183,Moore Airfield,Enfield,New Hampshire,United States
01NV,38.7639,-119.027,civil,610,Lantana Ranch,Yerington,Nevada,United States
01OH,41.2828,-83.148,civil,762,Gillmor,Fremont,Ohio,United States
01OK,35.2945,-98.6365,civil,805,Lawrence,Eakly,Oklahoma,United States
01OR,43.1193,-121.045,civil,1463,Red & White Flying Service,Silver Lake,Oregon,United States
01PN,40.9306,-77.7389,civil,518,Bierly(Personal Use),Bellefonte,Pennsylvania,United States
01PS,41.6009,-76.0271,civil,366,Nort's Resort,Meshoppen,Pennsylvania,United States
01SC,35.0321,-81.2528,civil,786,York,York,South Carolina,United States
01TE,32.7376,-96.428,civil,742,Smith Field,Forney,Texas,United States
01TN,34.9959,-89.7306,civil,823,Colonial Air Park,Collierville,Tennessee,United States
01TX,32.3876,-96.8775,civil,366,Mims Farm,Waxahachie,Texas,United States
01U,38.8516,-115.634,civil,1859,Duckwater,Duckwater,Nevada,United States
01UT,38.3083,-109.396,civil,975,La Sal Junction,La Sal,Utah,United States
01V,39.733,-104.655,civil,2176,Aurora,Aurora,Colorado,United States
01VA,39.125,-77.925,civil,457,Oehda,Berryville,Virginia,United States
01WI,44.01,-90.3892,civil,701,Prehn Cranberry Company,Tomah,Wisconsin,United States
01WY,44.3472,-104.811,civil,2121,Keyhole,Moorcroft,Wyoming,United States
02A,32.8505,-86.6115,civil,1217,Gragg-Wade,Clanton,Alabama,United States
02AK,61.8769,-150.098,civil,671,Rustic Wilderness,Willow,Alaska,United States
02AL,30.3715,-87.7644,civil,610,Bass Field,Foley,Alabama,United States
02AR,36.0906,-94.2096,civil,610,Mount Comfort Airpark,Fayetteville,Arkansas,United States
02AZ,32.3764,-109.937,civil,1372,Westchester Farm Airstrip,Wilcox,Arizona,United States
02C,43.0875,-88.1779,civil,2605,Capitol,Brookfield,Wisconsin,United States
02CL,34.7611,-119.059,civil,914,Conover Air Lodge,Frazier Park,California,United States
02CO,37.6433,-106.047,civil,814,McCullough,Monte Vista,Colorado,United States
02FA,28.5267,-81.8748,civil,757,Klinger Aero,Groveland,Florida,United States
02G,40.6733,-80.6414,civil,1067,Columbiana Co,East Liverpool,Ohio,United States
02GA,34.2026,-83.429,civil,823,Doug Bolton Field,Commerce,Georgia,United States
02ID,44.5555,-115.305,civil,610,Morgan Ranch,Cascade,Idaho,United States
02II,40.0623,-86.2105,civil,335,King,Westfield,Indiana,United States
02IN,40.2089,-85.5408,civil,311,Diamond P. Field,Muncie,Indiana,United States
02K,38.694,-90.5195,civil,1678,Arrowhead,St Louis,Missouri,United States
02KS,39.2222,-96.0553,civil,564,Jmj Landing,St Marys,Kansas,United States
02MD,39.2708,-76.5722,water,999,Hale Sea Port Base,Baltimore,Maryland,United States
02ME,43.5373,-70.9294,civil,732,Old Acton Airfield,Acton,Maine,United States
02MO,39.05,-91.0335,civil,671,Troy Airpark,Troy,Missouri,United States
02MS,34.1001,-90.8468,civil,655,Watts Field,Rochdale,Mississippi,United States
02MT,47.2374,-111.742,civil,671,Barrett Field,Cascade,Montana,United States
02NC,35.1772,-81.6447,civil,732,Oakridge Farm,Boiling Springs,North Carolina,United States
02ND,48.8083,-98.5237,civil,762,Dresden Field,Dresden,North Dakota,United States
02NE,41.0745,-96.9045,civil,536,Benes Service,Valparaiso,Nebraska,United States
02NV,41.3033,-118.598,civil,671,Paiute Meadows,Winnemucca,Nevada,United States
02OH,41.3764,-83.0833,civil,838,Zimmerman,Fremont,Ohio,United States
02OI,41.802,-80.5654,civil,457,Murtha,Conneaut,Ohio,United States
02OR,45.6815,-121.316,civil,610,Rowena Dell,The Dalles,Oregon,United States
02PR,18.4533,-66.3669,civil,610,Cuylers,Vega Baja,,Puerto Rico
02PS,41.9006,-77.2303,civil,152,Hughes,Tioga,Pennsylvania,United States
02SC,32.7585,-81.2248,civil,1097,Harpers,Estill,South Carolina,United States
02T,45.7691,-112.982,civil,1234,Wise River,Wise River,Montana,United States
02TN,35.7806,-86.5842,civil,488,Ellis Field,Murfreesboro,Tennessee,United States
02TX,32.2335,-97.4003,civil,533,Grand Valley Lands,Rio Vista,Texas,United States
02UT,41.3663,-113.843,civil,2438,Lucin,Lucin,Utah,United States
02VA,38.4357,-77.8572,civil,914,The Greenhouse,Culpeper,Virginia,United States
02WA,47.1523,-122.094,civil,808,Cawleys South Prairie,South Prairie,Washington,United States
02WI,45.0319,-92.6558,civil,671,Beer,Hudson,Wisconsin,United States
02XS,30.1477,-97.6628,civil,860,Seidel Ranch,Encinal,Texas,United States
02Y,48.6833,-96.192,civil,2118,Greenbush Mun,Greenbush,Minnesota,United States
03AZ,31.4334,-110.084,civil,1097,Thompson Intl Aviation,Hereford,Arizona,United States
03B,37.1278,-92.621,civil,914,Mansfield Mun,Mansfield,Missouri,United States
03CL,38.4582,-122.205,civil,671,Moskowite,Napa,California,United States
03CO,40.2167,-104.751,civil,1219,Kugel-Strong,Platteville,Colorado,United States
03D,40.4473,-92.227,civil,1006,Memphis Meml,Memphis,Missouri,United States
03FA,27.3531,-81.4081,civil,610,Lake Persimmon Airstrip,Lake Placid,Florida,United States
03FD,30.8288,-85.731,civil,610,Tharpe,Bonifay,Florida,United States
03GA,31.585,-83.7292,civil,488,Young's,Sumner,Georgia,United States
03I,39.6442,-83.0182,civil,716,Clarks Dream Strip,Circleville,Ohio,United States
03IA,41.5819,-92.4613,civil,610,East Field,Montezuma,Iowa,United States
03ID,44.7943,-116.533,civil,549,Flying Y Ranch,Council,Idaho,United States
03II,37.962,-87.7789,civil,305,Davis Field,Mount Vernon,Indiana,United States
03IL,41.4023,-87.8167,civil,792,Wix,Monee,Illinois,United States
03IN,40.18,-86.0125,civil,762,Heinzman,Arcadia,Indiana,United States
03KY,37.7917,-87.5414,civil,701,Flying H Farms,Henderson,Kentucky,United States
03M,44.3209,-69.8895,water,999,Lakeside Marina,East Winthrop,Maine,United States
03MA,42.3931,-72.552,civil,488,Hadley,Hadley,Massachusetts,United States
03ME,44.0842,-70.6273,civil,732,Maple Ridge,Harrison,Maine,United States
03MN,43.6252,-95.2244,civil,591,Nauerth Land Ranch,Lakefield,Minnesota,United States
03MO,37.8845,-93.1316,civil,671,Cahoochie,Urbana,Missouri,United States
03MT,47.2708,-111.722,civil,1341,Cascade,Cascade,Montana,United States
03N,11.2333,169.85,civil,732,Utirik,Utirik Island,,United States
03NC,34.1043,-77.9042,civil,838,Pilots Ridge,Carolina Beach,North Carolina,United States
03ND,48.6264,-97.829,civil,792,Olafson Brothers,Edinburg,North Dakota,United States
03NE,41.5464,-99.3312,civil,671,Hyde Ranch,Comstock,Nebraska,United States
03NY,40.9584,-72.7168,civil,610,Talmage Fld,Riverhead,New York,United States
03OH,41.4184,-83.0174,civil,1311,Gibbs Field,Fremont,Ohio,United States
03OK,36.0412,-96.1614,civil,366,Sahoma Lake,Sapulpa,Oklahoma,United States
03OR,45.8554,-117.484,civil,899,Powwatka Ridge,Troy,Oregon,United States
03PN,39.8168,-77.2664,civil,488,Browns,Gettysburg,Pennsylvania,United States
03PS,40.85,-77.9056,civil,832,Ziggy's Field,Bellefonte,Pennsylvania,United States
03Q,38.3041,-121.251,civil,884,Bottimore Ranch,Herald,California,United States
03S,45.4018,-122.229,civil,645,Sandy River,Sandy,Oregon,United States
03TA,30.2627,-96.5002,civil,579,Gay Hill Farm,Gay Hill,Texas,United States
03TE,27.4911,-98.6695,civil,1067,Barronena Ranch,Hebbronville,Texas,United States
03UT,37.1208,-109.986,civil,2515,A Z Minerals Corporation,Mexican Hat,Utah,United States
03VA,38.6646,-77.5797,civil,686,Whipoorwill Springs,Nokesville,Virginia,United States
03WA,47.4082,-117.372,civil,853,Spangle Field,Spangle,Washington,United States
03WI,44.0275,-88.8809,civil,457,Zink,Berlin,Wisconsin,United States
03WY,43.875,-107.338,civil,701,Otter Creek Ranch,Ten Sleep,Wyoming,United States
04A,31.7363,-86.2625,civil,1414,Sikes,Luverne,Alabama,United States
04AZ,36.1542,-109.551,civil,1280,Chinle,Chinle,Arizona,United States
04CA,34.5639,-117.675,civil,1524,Gray Butte Fld,Gray Butte Fld,California,United States
04CL,33.0817,-116.441,civil,579,Hunt's Sky Ranch,Julian,California,United States
04F,32.0988,-98.5253,civil,732,De Leon Muni,De Leon,Texas,United States
04FA,25.5587,-80.5151,civil,799,Richards Field,Homestead,Florida,United States
04FD,29.92,-82.9026,civil,427,Hall Farm,Branford,Florida,United States
04FL,29.2394,-81.222,civil,914,Cross Creek Farms,Ormond,Florida,United States
04G,41.1305,-80.6196,civil,937,Lansdowne,Youngstown,Ohio,United States
04I,39.9112,-83.1888,civil,810,Columbus Southwest,Columbus,Ohio,United States
04IA,41.0883,-92.0546,civil,704,Middlekoop,Packwood,Iowa,United States
04ID,43.8777,-116.537,civil,914,Lanham Field,Emmett,Idaho,United States
04II,41.1306,-84.9941,civil,418,Turkey Run,New Haven,Indiana,United States
04IL,40.6375,-89.007,civil,518,Schertz,Hudson,Illinois,United States
04IS,40.1786,-88.569,civil,671,Van Gorder,Mansfield,Illinois,United States
04KY,37.1351,-85.7894,civil,518,Natchez Trace Farm,Hiseville,Kentucky,United States
04LA,32.2732,-93.406,civil,792,Loggy Bayou Plantation,Ringgold,Louisiana,United States
04LL,42.1361,-88.2876,civil,1128,Brunner,West Dundee,Illinois,United States
04M,33.9301,-89.3428,civil,975,Calhoun Co,Pittsboro,Mississippi,United States
04MA,42.8098,-71.1392,civil,640,Goddard,Haverhill,Massachusetts,United States
04ME,44.6667,-69.8939,civil,594,Beech Hill,Mercer,Maine,United States
04MI,42.5345,-84.6283,civil,610,Rapids Airway,Eaton Rapids,Michigan,United States
04MN,47.9858,-94.6869,civil,762,Helblad,Kelliher,Minnesota,United States
04MO,39.3012,-91.4515,civil,792,Airpark Pvt,Vandalia,Missouri,United States
04MS,32.9396,-90.8373,civil,1036,Nick's Flying Service Inc,Rolling Fork,Mississippi,United States
04MT,47.1375,-106.488,civil,1219,Pluhar,Cohagen,Montana,United States
04ND,46.7275,-97.4401,civil,619,Hahn Field,Embden,North Dakota,United States
04NE,41.16,-101.299,civil,762,McConnell Field,Sarben,Nebraska,United States
04NJ,39.5968,-75.2335,civil,1067,Emmanuel,Elmer,New Jersey,United States
04NV,35.7555,-115.665,civil,988,Kingston Ranch,Sandy Valley,Nevada,United States
04NY,42.2623,-73.6962,civil,1585,Klaverack,Hudson,New York,United States
04OH,41.2477,-81.1007,civil,671,Bossow,Garrettsville,Ohio,United States
04OI,41.4201,-83.7972,civil,762,Herr Ii,Grand Rapids,Ohio,United States
04OR,44.7499,-120.201,civil,457,Collins Landing Strip,Mitchell,Oregon,United States
04PS,40.5154,-75.1696,civil,764,Schneiders Field,Revere,Pennsylvania,United States
04Q,36.8716,-121.337,civil,914,Christensen Ranch,Hollister,California,United States
04TN,36.1833,-82.6789,civil,686,Hensley Airpark,Chuckey,Tennessee,United States
04TX,31.7322,-97.3689,civil,610,Pocock,China Spring,Texas,United States
04UT,37.0083,-110.795,civil,1128,Navajo Mountain,Navajo Mountain Trdng Post,Utah,United States
04V,38.0972,-106.169,civil,2361,Saguache Mun,Saguache,Colorado,United States
04WA,47.5818,-117.437,civil,549,Ox Meadows,Spokane,Washington,United States
04WI,42.5234,-88.0167,civil,549,Dutch Gap Airstrip,Bristol,Wisconsin,United States
04WY,44.8333,-105.351,civil,2652,Thrush Ranch,Weston,Wyoming,United States
04Y,46.8839,-96.3509,civil,1040,Hawley Mun,Hawley,Minnesota,United States
05A,32.3001,-110.365,civil,838,Cascabel,Tucson,Arizona,United States
05AK,61.6661,-149.182,civil,488,Wasilla Creek Airpark,Palmer,Alaska,United States
05AR,36.1042,-94.1544,civil,579,Razorback,Fayetteville,Arkansas,United States
05B,47.1589,-67.932,water,999,Van Buren,Van Buren,Maine,United States
05C,41.5196,-87.4011,civil,1221,Griffith-Merrillville,Griffith,Indiana,United States
05CL,38.6107,-122.391,civil,1128,Pope Valley,Pope Valley,California,United States
05CO,40.2192,-104.984,civil,808,Rancho De Aereo,Mead,Colorado,United States
05D,47.967,-102.478,civil,914,New Town Mun,New Town,North Dakota,United States
05F,31.4213,-97.797,civil,1036,City-Co,Gatesville,Texas,United States
05FL,26.5231,-81.4083,civil,1463,Charlton Strip,La Belle,Florida,United States
05IA,43.1375,-93.0683,civil,747,Spotts Field,Nora Springs,Iowa,United States
05ID,45.9141,-114.836,civil,610,Running Creek Ranch,Grangeville,Idaho,United States
05II,41.0287,-84.9972,civil,549,Reichhart,New Haven,Indiana,United States
05IL,41.1567,-88.0167,civil,792,Classic Landings,Bonfield,Illinois,United States
05IN,39.642,-86.5042,civil,610,Cooper,Belleville,Indiana,United States
05IS,39.7259,-89.264,civil,610,Hardy,Mount Auburn,Illinois,United States
05KS,37.2662,-95.9592,civil,716,Darbro Field,Elk City,Kansas,United States
05KY,37.6454,-84.283,civil,732,Berea-Richmond,Berea,Kentucky,United States
05LA,32.2653,-91.6978,civil,671,Greg's Flying Service,Baskin,Louisiana,United States
05MD,39.2501,-76.2052,civil,823,Breezecroft,Chestertown,Maryland,United States
05MN,44.6344,-93.0724,civil,805,Sowieja,Farmington,Minnesota,United States
05MT,45.3541,-111.735,civil,1118,Sportsmans Field,Ennis,Montana,United States
05ND,47.2078,-97.4712,civil,518,Klessig Strip,Galesburg,North Dakota,United States
05NE,41.7222,-98.309,civil,978,McKay,Spalding,Nebraska,United States
05OI,41.2884,-81.9626,civil,610,Dorlon Airpark,Columbia Station,Ohio,United States
05OK,35.8534,-97.5675,civil,671,Hawk Haven,Crescent,Oklahoma,United States
05OR,45.4415,-117.351,civil,792,Peacock Ranch,Enterprise,Oregon,United States
05Q,38.2638,-120.923,civil,686,Camanche Skypark,Ione,California,United States
05S,45.8515,-123.242,civil,896,Vernonia,Vernonia,Oregon,United States
05TA,29.8091,-96.2651,civil,518,Brandes Air Field,Sealy,Texas,United States
05TE,30.7221,-97.7914,civil,457,Hilde-Griff Field,Geronimo,Texas,United States
05TN,35.557,-89.5529,civil,1219,Thurmond Glenn Fld,Covington,Tennessee,United States
05TS,33.1293,-97.3586,civil,518,Dew Drop,Justin,Texas,United States
05TX,32.1292,-97.4042,civil,632,Circle 'a' Ranch,Blum,Texas,United States
05U,39.6042,-116.005,civil,2225,Eureka,Eureka,Nevada,United States
05UT,37.0333,-110.317,civil,1204,Oljato,Oljato,Utah,United States
05V,37.4111,-105.552,civil,1875,Blanca,Blanca,Colorado,United States
05VA,37.2242,-78.4186,civil,610,Providence,Farmville,Virginia,United States
05W,35.5816,-76.5155,civil,534,Riverside Campground,Belhaven,North Carolina,United States
05WI,42.6511,-88.7459,civil,549,Ames Private,Darien,Wisconsin,United States
05XS,33.0793,-91.5432,civil,792,Johnson Memorial,Wilmot,Arkansas,United States
05Y,46.3038,-95.4395,civil,1000,Henning Mun,Henning,Minnesota,United States
06A,32.4605,-85.68,civil,1525,Moton Mun,Tuskegee,Alabama,United States
06AR,35.5445,-92.1849,civil,884,Bondair,Higden,Arkansas,United States
06AZ,35.7917,-110.423,civil,1280,Polacca,Polacca,Arizona,United States
06B,44.907,-68.805,water,999,Lucky Landing Marina And Spb,Bangor,Maine,United States
06C,41.9893,-88.1012,civil,1158,Schaumburg Regl,Chicago/Schaumburg,Illinois,United States
06D,48.8843,-99.6209,civil,2041,Rolla Mun,Rolla,North Dakota,United States
06FA,26.9084,-80.3289,civil,2135,William P Gwinn,Jupiter,Florida,United States
06I,38.4334,-86.6911,water,3499,Patoka Reservoir Landing Area,French Lick,Indiana,United States
06IA,41.8414,-91.8343,civil,533,Rich Field,Walford,Iowa,United States
06ID,43.4627,-116.359,civil,671,Larkin,Kuna,Idaho,United States
06II,40.0231,-86.0375,civil,792,Bill Shank,Noblesville,Indiana,United States
06IL,41.5995,-88.8699,civil,786,Humm,Earlville,Illinois,United States
06IN,39.2828,-87.3036,civil,488,Ellis Fly-In,Blackhawk,Indiana,United States
06IS,40.5464,-91.2743,civil,792,Sinele Strip,Nauvoo,Illinois,United States
06M,33.5346,-89.3126,civil,914,Eupora,Eupora,Mississippi,United States
06MN,47.6519,-92.4167,civil,457,Pike Field,Virginia,Minnesota,United States
06MO,39.2306,-94.8044,civil,914,Noahs Ark,Waldron,Missouri,United States
06MT,48.5583,-112.109,civil,671,Torgerson,Ethridge,Montana,United States
06N,41.4316,-74.3919,civil,1400,Randall,Middletown,New York,United States
06NC,34.8275,-78.9303,civil,792,Tailwinds,St. Pauls,North Carolina,United States
06ND,46.7489,-101.669,civil,853,Fitterer's Strip,Glen Ullin,North Dakota,United States
06NH,42.9284,-70.9731,civil,579,Cole Farm,Kensington,New Hampshire,United States
06NY,42.8428,-76.4453,civil,610,Murphy Field,Auburn,New York,United States
06OH,41.5098,-80.5912,civil,732,Hal Joy Airfield,Williamsfield,Ohio,United States
06OI,39.7348,-84.3822,civil,688,Green Acres,New Lebanon,Ohio,United States
06OR,45.4651,-123.08,civil,305,Hayden Mountain,Forest Grove,Oregon,United States
06PA,42.0084,-78.2581,civil,523,Ceres,Ceres,Pennsylvania,United States
06R,29.9419,-96.2461,civil,1213,Grawunder,Bellville,Texas,United States
06SN,37.5839,-97.2531,civil,732,Beyer Farm,Derby,Kansas,United States
06TA,30.9085,-97.1169,civil,579,Glaser Field,Buckholts,Texas,United States
06TE,30.3127,-95.0269,civil,1067,Ainsworth,Cleveland,Texas,United States
06TN,35.6973,-86.9569,civil,610,Hunter,Columbia,Tennessee,United States
06TS,32.1207,-96.1791,civil,1036,Roscoe McConnico,Kerens,Texas,United States
06TX,30.0576,-95.8129,civil,512,Diamond N Ranch,Hockley,Texas,United States
06U,41.976,-114.658,civil,1890,Jackpot/Hayden,Jackpot,Nevada,United States
06VA,38.249,-78.8553,civil,610,Mount Horeb Field,Grottoes,Virginia,United States
06VT,43.1338,-73.0774,civil,640,Meadowlands,Manchester,Vermont,United States
06WI,45.6627,-92.4502,civil,457,Young Private,Wausaukee,Wisconsin,United States
06Y,45.83,-96.1606,civil,913,Herman Mun,Herman,Minnesota,United States
07A,32.1696,-85.8097,civil,1116,Franklin,Union Springs,Alabama,United States
07AR,35.1945,-92.8002,civil,914,Morrilton,Morrilton,Arkansas,United States
07B,44.4404,-68.5661,civil,975,Blue Hill,Blue Hill,Maine,United States
07C,41.3072,-85.0643,civil,1522,De Kalb Co,Auburn,Indiana,United States
07CL,39.4977,-121.771,civil,677,Richvale,Richvale,California,United States
07D,43.0634,-82.7249,civil,671,Tackaberry,Avoca,Michigan,United States
07F,32.5288,-94.9717,civil,1709,Gladewater Mun,Gladewater,Texas,United States
07FA,25.3254,-80.2748,civil,1372,Ocean Reef Club,Key Largo,Florida,United States
07FD,30.418,-83.2838,civil,607,Flying G Ranch,Lee,Florida,United States
07GA,33.675,-83.7631,civil,518,Alcovy,Covington,Georgia,United States
07I,39.0586,-86.4461,water,999,Lake Monroe,Bloomington,Indiana,United States
07IA,42.8333,-94.8669,civil,728,Laurens Skyways,Laurens,Iowa,United States
07ID,42.2782,-113.305,civil,914,Interstate,Malta,Idaho,United States
07IN,39.5737,-85.9139,civil,567,Gray,Boggstown,Indiana,United States
07K,41.1167,-98.0503,civil,884,Central City Mun,Central City,Nebraska,United States
07KS,37.7342,-96.9367,civil,610,Heape Field,Augusta,Kansas,United States
07KY,38.0806,-85.6933,civil,610,Blue Lick,Louisville,Kentucky,United States
07L,42.0751,-72.5912,water,999,Agawam-Springfield Seaplane Harbor,Agawam,Massachusetts,United States
07MD,39.6083,-77.0519,civil,305,Baugher's Orchard,Westminster,Maryland,United States
07MI,43.8642,-85.0239,civil,885,Scott Airstrip,Lake,Michigan,United States
07MN,44.055,-95.9095,civil,792,Dairyview,Hadley,Minnesota,United States
07MO,38.65,-93.6169,civil,823,Lake Sexton,Warrensburg,Missouri,United States
07MT,48.4211,-106.528,civil,4115,Glasgow Industrial,Glasgow,Montana,United States
07N,40.0168,-77.0039,civil,671,Bermudian Valley,Kralltown,Pennsylvania,United States
07NC,34.8332,-80.7512,civil,610,Hawks Meadow,Waxhaw,North Carolina,United States
07ND,47.1561,-102.064,civil,482,Backfisch Strip,Golden Valley,North Dakota,United States
07OK,34.6334,-99.0337,civil,732,Pleasant Valley,Snyder,Oklahoma,United States
07OR,45.4218,-122.62,civil,366,Bruce's,Milwaukie,Oregon,United States
07PA,40.7584,-75.533,civil,610,Dieters,Cherryville,Pennsylvania,United States
07R,27.6103,-97.7519,civil,975,Bishop Mun,Bishop,Texas,United States
07TA,29.2405,-95.3447,civil,671,Salaika Aviation,Danbury,Texas,United States
07TE,27.7211,-97.5128,civil,1524,Cuddihy Field,Corpus Christi,Texas,United States
07TN,35.5686,-84.2411,civil,549,Corntassel,Vonore,Tennessee,United States
07TS,30.625,-97.5728,civil,762,Cross-Country Estates,Geronimo,Texas,United States
07V,37.5238,-105.009,civil,1765,Cuchara Valley Apt At La Veta,La Veta,Colorado,United States
07VA,36.8196,-78.7831,civil,488,Alpha Hotel,Clover,Virginia,United States
07WI,42.9653,-88.3915,civil,457,Bartell Strip,Genessee Depot,Wisconsin,United States
07Y,46.9555,-93.5969,civil,884,Hill City-Quadna Mtn,Hill City,Minnesota,United States
08A,32.5294,-86.3282,civil,1709,Wetumpka Mun,Wetumpka,Alabama,United States
08AR,34.5807,-91.9682,civil,579,Capps,England,Arkansas,United States
08B,44.0001,-69.887,civil,594,Merrymeeting,Bowdoinham,Maine,United States
08C,42.9359,-85.805,civil,1195,Riverview,Jenison,Michigan,United States
08CL,37.8596,-120.554,civil,610,Kistler Ranch,Jamestown,California,United States
08CT,41.896,-73.0931,water,999,Seavair's Landing,Winsted,Connecticut,United States
08D,48.3008,-102.406,civil,1187,Stanley Mun,Stanley,North Dakota,United States
08F,34.5318,-96.2331,civil,616,City Of Coalgate,Coalgate,Oklahoma,United States
08FA,26.5798,-81.4837,civil,1033,Duda Airstrip,La Belle,Florida,United States
08FD,27.3631,-80.7728,civil,1261,Sunniland Ranch,Okeechobee,Florida,United States
08FL,27.0845,-81.3287,civil,762,J. H. Hendrie Farms,Lake Placid,Florida,United States
08GA,31.4258,-81.2859,civil,1524,Sapelo Island,Darien,Georgia,United States
08IA,41.4105,-92.8816,civil,1341,Vermeer,Pella,Iowa,United States
08ID,43.5693,-116.777,civil,762,Symms,Marsing,Idaho,United States
08IL,41.577,-89.794,civil,671,Harms Airstrip,Tampico,Illinois,United States
08IS,37.9778,-89.2029,civil,402,Hemmer Rla,Du Quoin,Illinois,United States
08K,40.6514,-98.0798,civil,2209,Harvard State,Harvard,Nebraska,United States
08KS,39.0347,-97.58,civil,823,Alderson,Bennington,Kansas,United States
08KY,36.9726,-84.6261,civil,762,Boss,Burnside,Kentucky,United States
08LL,41.0753,-88.4892,civil,668,Sauer,Dwight,Illinois,United States
08M,32.7612,-89.5301,civil,914,Carthage-Leake Co,Carthage,Mississippi,United States
08MA,42.294,-71.4962,civil,305,Wormid,Southborough,Massachusetts,United States
08MN,47.6694,-93.0544,water,999,Christenson Point,Chisholm/Hibbing,Minnesota,United States
08MO,37.3956,-94.2838,civil,1457,Twin Oaks,Jasper,Missouri,United States
08MT,47.0639,-108.817,civil,792,Clark,Grassrange,Montana,United States
08N,40.2918,-76.3288,civil,823,Keller Brothers,Lebanon,Pennsylvania,United States
08NC,36.0676,-80.4656,civil,975,Heathwood Farm,Lewisville,North Carolina,United States
08ND,47.3231,-102.098,civil,396,Brecht Strip,Golden Valley,North Dakota,United States
08NE,42.4317,-97.0795,civil,914,Laurel Municipal,Laurel,Nebraska,United States
08NY,41.3681,-74.5056,civil,320,Md1,Middletown,New York,United States
08OH,41.2917,-80.5637,civil,914,Kenley,Hartford,Ohio,United States
08OK,34.9315,-95.2583,civil,549,Parks,Wilburton,Oklahoma,United States
08OR,42.8393,-121.117,civil,853,Saxon Sycan,Silver Lake,Oregon,United States
08R,41.489,-71.6203,civil,649,Richmond,West Kingston,Rhode Island,United States
08TE,29.976,-98.7436,civil,945,B. J. McCombs Sisterdale,Comfort,Texas,United States
08TS,26.8878,-98.5072,civil,1036,Puesta Del Sol,La Gloria,Texas,United States
08TX,32.8582,-97.7475,civil,1189,Cross Wind,Weatherford,Texas,United States
08U,41.5157,-115.86,civil,1097,Stevens Crosby,North Fork,Nevada,United States
08VA,37.554,-79.7498,civil,457,Springwood Airstrip,Buchanan,Virginia,United States
08WI,43.0436,-90.3551,civil,549,Pierick,Highland,Wisconsin,United States
09A,32.1193,-88.1275,civil,1243,Butler-Choctaw Co,Butler,Alabama,United States
09AZ,31.9253,-110.038,civil,716,Stronghold,St David,Arizona,United States
09C,42.1625,-85.5458,civil,2336,Austin Lake,Kalamazoo,Michigan,United States
09CL,39.1138,-121.057,civil,914,Alta Sierra,Grass Valley,California,United States
09CO,38.0556,-103.653,civil,991,Cottonwood Field,Swink,Colorado,United States
09FA,27.2456,-81.4131,civil,1463,Placid Lakes,Lake Placid,Florida,United States
09FD,28.6711,-82.0873,civil,807,Cheryl-Lane Landings,Bushnell,Florida,United States
09FL,30.9022,-87.1765,civil,755,R V Jordan,Jay,Florida,United States
09GA,31.1113,-83.6841,civil,732,Sunbelt Strip,Moultrie,Georgia,United States
09I,48.6135,-93.361,water,999,International Falls,International Falls,Minnesota,United States
09IA,41.7458,-92.4093,civil,823,Skydive Iowa,Brooklyn,Iowa,United States
09ID,45.1041,-114.855,civil,701,Taylor Ranch Landing Area,Moscow,Idaho,United States
09II,38.4473,-86.445,civil,488,Gibbons Field,Valeene,Indiana,United States
09IN,41.1209,-85.425,civil,1341,Gordon,Columbia City,Indiana,United States
09J,31.0745,-81.4278,civil,1134,Jekyll Island,Jekyll Island,Georgia,United States
09K,41.637,-99.3404,civil,914,Sargent Mun,Sargent,Nebraska,United States
09KS,38.707,-95.1383,civil,762,Coffman,Wellsville,Kansas,United States
09LL,42.4681,-88.7432,civil,701,Pine Hill,Capron,Illinois,United States
09M,33.9915,-90.0781,civil,914,Charleston Mun,Charleston,Mississippi,United States
09MA,42.3043,-71.5059,civil,1128,Kallander Field,Southborough,Massachusetts,United States
09MN,44.78,-95.6636,civil,817,W Johnson Field,Hazel Run,Minnesota,United States
09MO,37.3784,-93.3633,civil,402,Hogue Farm,Willard,Missouri,United States
09MT,46.8333,-108.917,civil,1676,N Bar Ranch,Grassrange,Montana,United States
09N,41.8326,-73.876,civil,532,Airhaven,Staatsburg,New York,United States
09NC,35.3293,-79.03,civil,732,William Irving Lewis,Broadway,North Carolina,United States
09NE,41.3333,-96.1936,civil,762,Summer Hill Farm,Bennington,Nebraska,United States
09OH,40.3498,-80.9051,civil,610,Pine Acres,Hopedale,Ohio,United States
09OK,36.3545,-95.8639,civil,762,Ragtime Aerodrome,Collinsville,Oklahoma,United States
09PA,40.827,-77.9881,civil,701,Eagle Field,Port Matilda,Pennsylvania,United States
09R,30.7747,-94.4588,civil,1222,Tyler Co,Woodville,Texas,United States
09S,48.8416,-117.284,civil,579,Sullivan Lake State,Metaline Falls,Washington,United States
09TA,31.1605,-96.4375,civil,1219,Rockin 7 Ranch,Franklin,Texas,United States
09TE,32.2668,-97.867,civil,858,Running M Ranch,Glen Rose,Texas,United States
09TS,29.4824,-103.165,civil,1280,Pitcock Rosillos Mountain Ranch,Marathon,Texas,United States
09TX,30.7391,-102.024,civil,2670,Smokey Mtn Ranch,Sheffield,Texas,United States
09VA,36.9765,-80.4939,civil,335,Alum Ridge,Floyd,Virginia,United States
09WI,44.0036,-91.3076,civil,762,Parkway Farm Strip,Holmen,Wisconsin,United States
09Y,44.8166,-93.0155,water,999,Wipline,Inver Grove Hgts,Minnesota,United States
0A2,34.0904,-82.5679,civil,1194,Hester Meml,Calhoun Falls,South Carolina,United States
0A3,35.9853,-85.8093,civil,1251,Smithville Mun,Smithville,Tennessee,United States
0A4,36.3637,-82.309,civil,914,Johnson City,Johnson City,Tennessee,United States
0A7,35.3076,-82.4332,civil,937,Hendersonville,Hendersonville,North Carolina,United States
0A8,32.9368,-87.0889,civil,1280,Bibb Co,Centreville,Alabama,United States
0A9,36.3712,-82.1734,civil,1380,Elizabethton Mun,Elizabethton,Tennessee,United States
0AK,61.9346,-162.9,civil,772,Pilot Station,Pilot Station,Alaska,United States
0AK0,64.3925,-146.862,civil,320,Scotts,North Pole,Alaska,United States
0AK1,61.617,-149.315,civil,1585,Anderson Lake Strip,Wasilla,Alaska,United States
0AK2,71.0588,-154.751,civil,762,Cape Simpson,Cape Simpson,Alaska,United States
0AK3,62.0359,-150.494,civil,274,Parker Lake,Montana Creek,Alaska,United States
0AK6,61.8034,-147.944,civil,518,Victory,Victory Bible Camp,Alaska,United States
0AL1,30.4439,-87.6569,civil,805,Resort,Foley,Alabama,United States
0AL5,31.0322,-87.2528,civil,671,Flomaton,Flomaton,Alabama,United States
0AL9,34.85,-87.6325,civil,671,Wilson Creek,Florence,Alabama,United States
0AR1,35.0947,-93.202,civil,732,Hooterville South,Centerville,Arkansas,United States
0AR2,35.2668,-90.3501,civil,853,Mission Field-Marotti Memorial,Crawfordsville,Arkansas,United States
0AR3,35.899,-93.261,civil,610,Taylor's Air Strip,Deer,Arkansas,United States
0AR7,33.9501,-91.1812,civil,671,Yancopin,Watson,Arkansas,United States
0AZ1,32.3009,-111.324,civil,2362,Taylor Field,Marana,Arizona,United States
0AZ2,33.7781,-113.642,civil,1524,Salome Outback,Salome,Arizona,United States
0AZ4,32.9823,-112.287,civil,884,Flying Bucket Ranch,Mobile,Arizona,United States
0AZ5,33.8659,-112.603,civil,610,Castle Well,Morristown,Arizona,United States
0B1,44.4251,-70.8078,civil,1164,Bethel Regl,Bethel,Maine,United States
0B2,44.7637,-68.7678,civil,527,Brewer,Brewer,Maine,United States
0B4,42.6036,-97.2526,civil,1964,Hartington Mun,Hartington,Nebraska,United States
0B5,42.5914,-72.5228,civil,918,Turners Falls,Montague,Massachusetts,United States
0B7,44.1167,-72.8271,civil,785,Warren-Sugarbush,Warren,Vermont,United States
0B8,41.2513,-72.0316,civil,1254,Elizabeth,Fishers Island,New York,United States
0C0,42.4025,-88.6324,civil,2680,Dacy,Harvard,Illinois,United States
0C1,39.4878,-94.7805,civil,724,Rainbow Air Village,Dearborn,Missouri,United States
0C2,41.7709,-88.7034,civil,805,Hinckley,Hinckley,Illinois,United States
0C3,41.4834,-88.0834,civil,776,Wilhelmi,Joliet,Illinois,United States
0C4,42.1139,-96.7289,civil,1097,Pender Mun,Pender,Nebraska,United States
0C5,43.5764,-85.2806,civil,1158,Canadian Lakes,Mecosta,Michigan,United States
0C7,41.522,-89.1326,civil,1213,Grandpa's Farm-Mendota,Mendota,Illinois,United States
0C8,41.5195,-88.6056,civil,1899,Cushing,Newark,Illinois,United States
0CA1,34.9883,-120.458,civil,762,Northside Airpark,Santa Maria,California,United States
0CA3,34.5875,-120.013,civil,640,Crawford,Santa Ynez,California,United States
0CA4,34.6222,-120.065,civil,1097,Shepherd Ranch,Santa Ynez,California,United States
0CA5,33.1431,-116.745,civil,427,Hoffman Pvt,Santa Ysabel,California,United States
0CA6,32.7494,-116.016,civil,732,Emory Ranch,Ocotillo,California,United States
0CA8,33.4278,-116.843,civil,1381,Ward Ranch,Aguanga,California,United States
0CA9,35.595,-120.339,civil,1006,Blech Ranch,Shandon,California,United States
0CL1,34.5694,-117.556,civil,1646,Krey Field,Adelanto,California,United States
0CL3,32.6331,-116.893,civil,1280,John Nichol's Field,Chula Vista,California,United States
0CL6,34.6947,-118.283,civil,579,Bohunk's Airpark,Lancaster,California,United States
0CL8,35.5913,-117.634,civil,1067,Tera,Ridgecrest,California,United States
0CO1,40.0333,-105.124,civil,762,Dave's,Louisville,Colorado,United States
0CO2,38.8519,-106.933,civil,1219,Buckhorn Ranch,Crested Butte,Colorado,United States
0CO3,39.8894,-104.545,civil,1280,Greggs Nr 1,Bennett,Colorado,United States
0CO5,39.8333,-103.59,civil,853,Chenoweth,Last Chance,Colorado,United States
0CO6,38.2194,-108.213,civil,2591,Flying M & M Ranch,Norwood,Colorado,United States
0CO8,40.2083,-105.013,civil,610,Cartwheel,Mead,Colorado,United States
0CO9,37.6583,-106.034,civil,792,Van Treese,Monte Vista,Colorado,United States
0D1,42.3508,-86.2561,civil,2308,South Haven Area Regl,South Haven,Michigan,United States
0D4,42.3562,-79.5489,civil,899,Camp Vernon,Westfield,New York,United States
0D5,43.1667,-76.808,civil,686,Hill Top Airpark,Wolcott,New York,United States
0D6,40.475,-96.9878,civil,1370,Wilber Mun,Wilber,Nebraska,United States
0D7,40.7906,-83.8291,civil,596,Ada,Ada,Ohio,United States
0D8,44.9873,-99.9535,civil,1980,Gettysburg Mun,Gettysburg,South Dakota,United States
0E0,34.9856,-106.009,civil,2343,Moriarty,Moriarty,New Mexico,United States
0E1,36.565,-103.491,civil,2057,Price Ranch,Mt Dora,New Mexico,United States
0E8,35.7177,-108.202,civil,1774,Crownpoint,Crownpoint,New Mexico,United States
0E9,40.7545,-93.2413,civil,997,Corydon,Corydon,Iowa,United States
0F2,33.6017,-97.7756,civil,1100,Bowie Mun,Bowie,Texas,United States
0F3,43.3875,-95.1392,civil,920,Spirit Lake Mun,Spirit Lake,Iowa,United States
0F4,41.2903,-98.9906,civil,1615,Loup City Mun,Loup City,Nebraska,United States
0F7,35.389,-95.6016,civil,914,Fountainhead Lodge,Eufaula,Oklahoma,United States
0F8,36.1753,-96.1518,civil,1770,Pogue Mun,Sand Springs,Oklahoma,United States
0F9,34.1959,-96.6756,civil,945,Tishomingo,Tishomingo,Oklahoma,United States
0FA1,27.3039,-81.8804,civil,549,Frierson Grove,Arcadia,Florida,United States
0FD0,29.2675,-81.2301,civil,1219,Big 'g',Ormond Beach,Florida,United States
0FD6,27.9075,-80.4864,water,914,Fulton,Sebastian,Florida,United States
0FD9,30.6521,-86.1094,civil,602,Joy Farms,Defuniak Springs,Florida,United States
0FL0,26.7306,-81.1639,civil,701,Harper's Fly-In Ranch,Clewiston,Florida,United States
0FL1,29.9833,-82.8356,civil,785,Thompson Airfield,Branford,Florida,United States
0FL2,28.7877,-81.1676,water,610,Alligator Drink,Geneva,Florida,United States
0FL5,28.4594,-81.3497,water,610,Lake Conway South,Belle Isle,Florida,United States
0FL8,30.1939,-81.6819,water,610,Gary Gale,Jacksonville,Florida,United States
0FL9,26.3939,-81.0231,civil,1875,McDaniel Ranch Inc.,Clewiston,Florida,United States
0G0,43.1032,-78.7033,civil,881,North Buffalo Suburban,Lockport,New York,United States
0G3,40.3994,-96.1714,civil,1067,Tecumseh Mun,Tecumseh,Nebraska,United States
0G5,47.8163,-90.3976,water,999,Grand Marais/Cook County,Grand Marais,Minnesota,United States
0G6,41.4674,-84.5066,civil,1522,Williams Co,Bryan,Ohio,United States
0G7,42.8836,-76.7811,civil,1718,Finger Lakes Regl,Seneca Falls,New York,United States
0GA0,33.3562,-84.3671,civil,655,Halls Flying Ranch,Hampton,Georgia,United States
0GA1,34.4754,-82.9025,civil,610,Mustang Field,Hartwell,Georgia,United States
0GA2,34.3773,-82.9396,civil,792,"Airnautique, Inc.",Hartwell,Georgia,United States
0GA3,33.7701,-85.0608,civil,610,Ayresouth,Temple,Georgia,United States
0GA4,33.8129,-83.5057,civil,610,Paradise Falls,High Shoals,Georgia,United States
0GA6,33.7334,-83.8188,civil,640,Sunset Strip,Jersey,Georgia,United States
0GA7,33.6834,-84.9999,civil,914,Hickory Level Airfield,Temple,Georgia,United States
0GA8,30.8871,-83.416,civil,914,Paso Fino Farm,Valdosta,Georgia,United States
0GA9,32.7139,-84.0275,civil,1128,Roberta Industrial Park,Roberta,Georgia,United States
0GE0,33.7821,-84.8008,civil,610,Pinewood,Douglasville,Georgia,United States
0GE1,31.6655,-83.4471,civil,914,Crystal Lake Airpark,Irwinville,Georgia,United States
0GE2,31.1405,-85.0466,civil,1711,Georgia-Pacific,Cedar Springs,Georgia,United States
0GE3,34.9047,-85.4597,civil,610,Lookout Mountain,Trenton,Georgia,United States
0GE4,33.3314,-84.2667,civil,319,Pecan Patch Airstrip,Sunnyside,Georgia,United States
0GE5,34.5618,-83.7135,civil,762,Mountain Airpark,Cleveland,Georgia,United States
0H1,39.0045,-99.8929,civil,1219,Trego Wakeeney,Wakeeney,Kansas,United States
0H7,40.425,-91.7127,civil,808,Kahoka Mun,Kahoka,Missouri,United States
0I2,39.4767,-87.0997,civil,895,Brazil Clay Co,Brazil,Indiana,United States
0I8,38.3667,-84.2841,civil,1174,Cynthiana-Harrison Co,Cynthiana,Kentucky,United States
0IA3,42.4347,-92.328,civil,701,Hawkeye,Waterloo,Iowa,United States
0IA4,41.0334,-91.0501,civil,914,Sharar Field,Mediapolis,Iowa,United States
0IA5,40.8722,-93.2627,civil,610,Moore Private,Millerton,Iowa,United States
0IA6,41.6597,-92.2899,civil,792,Rinehart,Victor,Iowa,United States
0IA8,42.228,-91.751,civil,390,Hannen,Center Point,Iowa,United States
0II0,40.26,-85.2533,civil,457,Chuck's,Albany,Indiana,United States
0II1,40.4281,-86.1533,civil,396,Unsicker,Bremen,Indiana,United States
0II2,41.4573,-86.1244,civil,396,Creighton,Bremen,Indiana,United States
0II3,40.6278,-86.0378,civil,732,Miller Strip,Bunker Hill,Indiana,United States
0II5,40.6595,-86.8572,civil,732,Marshall Field,Chalmers,Indiana,United States
0II6,41.6431,-85.8297,civil,914,Kropf,Goshen,Indiana,United States
0II7,39.7956,-85.7861,civil,762,Frost Field,Greenfield,Indiana,United States
0II8,41.3248,-87.4759,civil,427,Sutton's Field,Lowell,Indiana,United States
0II9,39.5342,-86.5772,civil,488,Winters,Hall,Indiana,United States
0IL2,40.8473,-88.0478,civil,725,Wilken,Danforth,Illinois,United States
0IL3,40.157,-87.6745,civil,549,Flying B Ranch,Danville,Illinois,United States
0IL8,41.8725,-88.7237,civil,488,Walter,De Kalb,Illinois,United States
0IL9,41.8548,-88.7873,civil,853,Jack W. Watson,De Kalb,Illinois,United States
0IN1,38.5,-87.5959,civil,610,Snider Field,Decker,Indiana,United States
0IN2,40.8278,-85.0861,civil,1676,The Lazy K,Tocsin,Indiana,United States
0IN3,41.1167,-86.6667,civil,671,Graves Landing Strip,Winamac,Indiana,United States
0IN4,41.1278,-84.9472,civil,744,Air Park Field,Woodburn,Indiana,United States
0IN5,38.329,-86.0336,civil,366,Byrne Field,Byrneville,Indiana,United States
0IN9,37.9931,-87.9514,civil,732,Parrish,Mount Vernon,Indiana,United States
0IS3,41.6608,-89.6936,civil,762,Cady Aerial Rla,Deer Grove,Illinois,United States
0IS4,39.7625,-88.6715,civil,736,Dawson Farms,Lovington,Illinois,United States
0IS5,38.9345,-89.6251,civil,488,Mueller,New Douglas,Illinois,United States
0J0,31.6002,-85.2388,civil,888,Abbeville Mun,Abbeville,Alabama,United States
0J4,31.0425,-86.3116,civil,975,Florala Mun,Florala,Alabama,United States
0J6,31.3649,-85.3097,civil,2148,Headland Mun,Headland,Alabama,United States
0J8,29.618,-82.5087,civil,975,Flying Ten,Archer,Florida,United States
0J9,40.8695,-97.3517,civil,914,Flying V,Utica,Nebraska,United States
0K6,36.179,-95.5811,civil,480,Dobie's,Inola,Oklahoma,United States
0K7,42.7361,-94.2452,civil,1036,Humboldt Mun,Humboldt,Iowa,United States
0KS0,38.6333,-95.9253,civil,792,J V Ranch,Osage City,Kansas,United States
0KS1,39.2167,-95.3372,civil,701,Shomin,Oskaloosa,Kansas,United States
0KS2,38.56,-95.3091,civil,732,Kellie Mann Airfield,Ottawa,Kansas,United States
0KS3,38.5667,-95.3669,civil,610,Camp Chippewa,Ottawa,Kansas,United States
0KS4,38.8083,-95.5989,civil,533,Snoopys,Overbrook,Kansas,United States
0KS6,37.4522,-97.3178,civil,700,Kendrigan,Peck,Kansas,United States
0KS7,37.6928,-97.8864,civil,610,Mono Aircraft,Cheney,Kansas,United States
0KS8,37.3825,-95.3747,civil,518,Pearce Field,Parsons,Kansas,United States
0KS9,37.5159,-96.9198,civil,914,Lmn 120,Douglas,Kansas,United States
0KY1,36.7656,-86.6183,civil,975,Arnemann Farms,Franklin,Kentucky,United States
0KY4,37.5644,-87.0819,civil,511,Cambron Field,Owensboro,Kentucky,United States
0KY5,36.8125,-86.375,civil,853,Falin Landing Strip,Bowling Green,Kentucky,United States
0KY7,36.6361,-88.9986,civil,671,Clinton-Hickman County,Clinton,Kentucky,United States
0KY8,37.1172,-83.7361,civil,701,Sky,Manchester,Kentucky,United States
0L0,34.9617,-116.675,civil,805,Harvard,Yermo,California,United States
0L4,37.4858,-117.191,civil,1966,Lida Junction,Goldfield,Nevada,United States
0L5,37.718,-117.238,civil,960,Goldfield,Goldfield,Nevada,United States
0L7,35.7683,-115.33,civil,2530,Jean,Jean,Nevada,United States
0L8,39.075,-94.5063,civil,818,Heart,Kansas City,Missouri,United States
0L9,36.3111,-114.464,civil,1036,Echo Bay,Overton,Nevada,United States
0LA1,30.2294,-90.9734,civil,914,Double H Ranch,Gonzales,Louisiana,United States
0LA2,30.278,-90.9632,civil,671,Don Babin-Private,Gonzales,Louisiana,United States
0LA3,32.7493,-93.8735,civil,823,Belcher Airpatch,Belcher,Louisiana,United States
0LA9,30.5863,-90.8615,civil,914,Rebel Field,Watson,Louisiana,United States
0LL0,42.2647,-88.73,civil,619,Kaufield,Belvidere,Illinois,United States
0LL1,39.0942,-90.3134,civil,762,Jerseyville Aviation Inc,Jerseyville,Illinois,United States
0LL2,40.7389,-90.3807,civil,792,Murk's Strip,St Augustine,Illinois,United States
0LL3,39.055,-90.3421,civil,610,Koenig,Jerseyville,Illinois,United States
0LL4,41.4192,-89.1231,civil,653,Tri-City,La Salle,Illinois,United States
0LL5,40.11,-88.0784,civil,680,Busboom Rla,St Joseph,Illinois,United States
0LL6,41.6984,-88.6076,civil,792,Gord,Sandwich,Illinois,United States
0LL8,40.8336,-88.3776,civil,610,Immke,Saunemin,Illinois,United States
0LS0,29.7497,-90.7358,civil,914,Theriot Field,Thibodaux,Louisiana,United States
0LS1,30.2239,-92.7786,civil,792,AG Aviation,Welsh,Louisiana,United States
0LS4,30.8087,-92.188,civil,518,Buller's Airstrip,Bunkie,Louisiana,United States
0LS5,30.3069,-92.1298,civil,198,Trahan,Cankton,Louisiana,United States
0LS6,30.7877,-92.0504,civil,762,Dufour,Morrow,Louisiana,United States
0LS7,30.6128,-91.4842,civil,671,Morgan Field,New Roads,Louisiana,United States
0LS8,30.2858,-92.9413,civil,762,Lonesome Dove Airfield,Woodlawn,Louisiana,United States
0LS9,32.5043,-91.9821,civil,466,Huenefeld,Monroe,Louisiana,United States
0M0,33.8845,-91.5343,civil,1527,Free Mun,Dumas,Arkansas,United States
0M1,35.6378,-88.128,civil,1214,Scott,Parsons,Tennessee,United States
0M2,36.4753,-89.3462,civil,1067,Reelfoot Lake,Tiptonville,Tennessee,United States
0M3,35.546,-87.5973,civil,1220,Baker,Hohenwald,Tennessee,United States
0M4,36.0112,-88.1233,civil,1067,Benton Co,Camden,Tennessee,United States
0M5,36.1166,-87.7382,civil,1220,Humphreys Co,Waverly,Tennessee,United States
0M6,34.3668,-89.9001,civil,1524,Panola Co,Batesville,Mississippi,United States
0M8,32.8259,-91.1877,civil,975,Byerley,Lake Providence,Louisiana,United States
0M9,32.4107,-91.4987,civil,914,Delhi Mun,Delhi,Louisiana,United States
0MD1,39.1873,-75.7927,civil,914,Taylor Field,Sudlersville,Maryland,United States
0MD2,38.2879,-76.8675,civil,671,Squier Landing,Cobb Island,Maryland,United States
0MD4,39.2668,-76.1872,civil,792,Pond View Pvt,Chestertown,Maryland,United States
0MD6,39.3812,-77.1058,civil,549,Walters,Mount Airy,Maryland,United States
0MI1,44.1403,-84.4375,civil,1067,Sugar Springs,Gladwin,Michigan,United States
0MI2,44.5222,-83.6833,civil,610,Stier Airstrip,Glennie,Michigan,United States
0MI3,44.6334,-84.4834,civil,2408,Kelleys,Grayling,Michigan,United States
0MI4,46.2702,-87.3865,civil,914,Lesterson Field,Gwinn,Michigan,United States
0MI5,47.122,-88.5639,water,999,Grognet Flying Service,Houghton,Michigan,United States
0MI6,46.3875,-85.184,civil,671,Young's,Hulbert,Michigan,United States
0MI8,44.9,-84.3,civil,823,Twin Lakes,Lewiston,Michigan,United States
0MN0,44.7969,-92.9841,water,999,Winner's Landing,St Paul Park,Minnesota,United States
0MN1,44.2625,-94.0697,civil,610,Brinkman,St Peter,Minnesota,United States
0MN2,46.1333,-93.003,water,999,Grindstone Lake,Sandstone,Minnesota,United States
0MN3,46.6719,-94.2946,water,999,Lower Hay Lake,Jenkins,Minnesota,United States
0MN4,46.4792,-94.323,water,999,Paul's,Nisswa,Minnesota,United States
0MN5,44.3072,-94.9169,civil,853,Pankratz,Springfield,Minnesota,United States
0MN6,43.6622,-92.4043,civil,762,Matson Fld,Spring Valley,Minnesota,United States
0MN8,45.1358,-92.8594,civil,503,Keller,Stillwater,Minnesota,United States
0MO0,38.4103,-93.8502,civil,514,Ferros Ranch-Aero,Clinton,Missouri,United States
0MO1,38.5445,-94.0947,civil,640,Flying G,Creighton,Missouri,United States
0MO2,37.7867,-90.7801,civil,366,Short-N-Ruff,Caledonia,Missouri,United States
0MO3,38.4403,-94.5933,civil,549,Arvin Ranch,Drexel,Missouri,United States
0MO5,40.1334,-92.1002,civil,549,Joe D Lewis,Edina,Missouri,United States
0MO6,40.1167,-92.2669,civil,549,Hall,Edina,Missouri,United States
0MO8,39.1406,-90.7368,civil,792,Sloan's,Elsberry,Missouri,United States
0MS0,32.475,-88.6167,civil,975,Topton Air Estates,Meridian,Mississippi,United States
0MS1,31.4252,-90.9029,civil,701,Franklin Field,Meadville,Mississippi,United States
0MS2,31.5418,-89.3917,civil,701,Morgan Field,Seminary,Mississippi,United States
0MS5,33.3918,-90.9168,civil,823,Lewis Air Service,Leland,Mississippi,United States
0MS7,34.3426,-89.1431,civil,640,Hale Field,Pontotoc,Mississippi,United States
0MS8,33.6993,-91.1651,civil,1219,Catfish Point,Benoit,Mississippi,United States
0MS9,33.8007,-89.0273,civil,975,Shenandoah Valley Farms,Houston,Mississippi,United States
0MT0,46.7271,-113.658,civil,1242,Elliott Field,Clinton,Montana,United States
0MT1,47.4975,-112.391,civil,457,Williams Field,Augusta,Montana,United States
0MT4,46.2786,-114.141,civil,305,Kimp,Hamilton,Montana,United States
0MT5,45.6342,-108.849,civil,229,Cottonwood,Laurel,Montana,United States
0MT6,48.0406,-114.679,civil,732,Hanson,Marion,Montana,United States
0MT7,47.6608,-115.404,civil,1158,Pinehurst Ranch,Thompson Falls,Montana,United States
0MT9,48.4833,-114.493,civil,518,Lone Hawk,White Fish,Montana,United States
0MU0,37.2347,-91.0936,civil,930,Eagle Field,Ellington,Missouri,United States
0MU1,37.2467,-94.1739,civil,610,Sunderland,Avilla,Missouri,United States
0MU4,39.6161,-92.8669,civil,518,Slaughter,Marceline,Missouri,United States
0MU7,38.875,-94.1397,civil,792,Lambs Field,Lone Jack,Missouri,United States
0MU8,37.4387,-89.759,civil,244,Prince,Millersville,Missouri,United States
0N0,39.2911,-94.4422,civil,847,Roosterville,Liberty,Missouri,United States
0N4,39.2023,-75.4855,civil,772,Chandelle Estates,Dover,Delaware,United States
0N6,39.0126,-75.5335,civil,624,Henderson Aviation,Felton,Delaware,United States
0NA1,46.2455,-97.0376,civil,610,Goerger,Barney,North Dakota,United States
0NA2,46.7658,-96.9287,civil,488,Bensen Airstrip,Horace,North Dakota,United States
0NA3,46.9025,-97.0983,civil,792,Kasowski,Mapleton,North Dakota,United States
0NA4,46.8055,-97.9051,civil,838,Kreidelcamp,Valley City,North Dakota,United States
0NA5,48.0011,-99.5629,civil,671,Sorlie,Maddock,North Dakota,United States
0NA8,47.8747,-101.146,civil,792,Scheresky Airstrip,Benedict,North Dakota,United States
0NA9,46.75,-103.801,civil,671,Boyd's Turf,Golva,North Dakota,United States
0NC1,35.4571,-82.3754,civil,445,Bearwallow Farm,Hendersonville,North Carolina,United States
0NC8,35.7557,-80.7353,civil,701,Double Creek Ranch,Cleveland,North Carolina,United States
0ND0,47.9292,-99.4004,civil,792,Gilbertson Field,Flora,North Dakota,United States
0ND2,47.1722,-96.8406,civil,579,Swenson,Gardner,North Dakota,United States
0ND6,46.055,-99.9171,civil,488,Schumacher Strip,Hague,North Dakota,United States
0ND7,46.4653,-100.105,civil,792,Saville Pvt,Hazelton,North Dakota,United States
0NE0,41.85,-101.95,civil,1250,Merrihew,Ashby,Nebraska,United States
0NE1,42.4072,-101.932,civil,762,Runner Landing Area,Ashby,Nebraska,United States
0NE2,41.8666,-101.917,civil,1219,Merry,Ashby,Nebraska,United States
0NE5,41.0211,-102.018,civil,884,Newman,Big Springs,Nebraska,United States
0NE6,40.4333,-98.0706,civil,1128,Frager Field,Fairfield,Nebraska,United States
0NJ5,40.8859,-74.7057,civil,640,Fla-Net,Netcong,New Jersey,United States
0NJ6,39.3168,-74.6329,civil,899,Dix Field,Linwood,New Jersey,United States
0NK0,42.334,-78.7909,civil,427,Berdick Field,Cattaraugus,New York,United States
0NK1,43.3617,-76.2202,civil,640,Spring Brook,Central Square,New York,United States
0NK2,42.9834,-74.0162,civil,914,Westwind Farm,Charlton,New York,United States
0NK3,42.6959,-77.7922,civil,823,Seven Gullies,Groveland,New York,United States
0NK6,42.4384,-76.0888,civil,808,Lapeer Flyer,Marathon,New York,United States
0NK8,41.9209,-73.6704,civil,762,Rocky Reef Farm,Attlebury,New York,United States
0NK9,43.0103,-75.8269,civil,518,Lakeview,Chittenango,New York,United States
0NM0,31.8237,-107.627,civil,1283,Columbus Muni,Columbus,New Mexico,United States
0NM2,32.5001,-106.687,civil,1524,Waids Airpark,Organ,New Mexico,United States
0NM7,33.5209,-108.543,civil,3505,Negrito Airstrip,Reserve,New Mexico,United States
0NY0,43.7001,-73.9829,civil,914,Bennetts,North Creek,New York,United States
0NY1,43.1392,-73.6532,civil,415,Russell Fld,Northumberland,New York,United States
0NY2,43.3417,-75.3579,civil,762,Flying Acres,North Western,New York,United States
0NY3,43.314,-74.9321,civil,488,Kermizian,Ohio,New York,United States
0NY4,42.9576,-78.5514,civil,549,Alan Dipaolo Field,Buffalo,New York,United States
0NY7,43.0376,-74.1843,civil,610,Murphys Lndg Strip,Perth,New York,United States
0NY8,42.9973,-74.2454,civil,518,Wenskoski Field,Perth,New York,United States
0O0,37.0583,-121.126,water,999,San Luis Reservoir,Los Banos,California,United States
0O2,35.2855,-116.083,civil,962,Baker,Baker,California,United States
0O4,39.9438,-122.171,civil,823,Corning Mun,Corning,California,United States
0O5,38.5315,-121.786,civil,970,University,Davis,California,United States
0O9,41.8457,-123.985,civil,911,Ward,Gasquet,California,United States
0OH2,39.9706,-83.9116,civil,722,Jenkins Field,North Hampton,Ohio,United States
0OH4,40.347,-82.7777,civil,549,Zurik Stol,Marengo,Ohio,United States
0OH5,39.4431,-84.043,civil,998,Hagemeyer,Oregonia,Ohio,United States
0OH6,39.6006,-84.0197,civil,244,Fry Field,Spring Valley,Ohio,United States
0OH7,40.1433,-84.1719,civil,1067,Apple,Piqua,Ohio,United States
0OH8,40.1884,-84.2561,civil,914,Fry,Piqua,Ohio,United States
0OH9,40.0717,-83.2299,civil,335,Parknavy,Plain City,Ohio,United States
0OI2,39.3598,-83.4177,civil,671,Unger Field,Greenfield,Ohio,United States
0OI3,41.3821,-82.7161,civil,579,Galloway,Sandusky,Ohio,United States
0OI4,41.3237,-81.1634,civil,610,Salt Box,Hiram,Ohio,United States
0OI6,41.8381,-80.6437,civil,792,Victor's Landing,Kingsville,Ohio,United States
0OI9,38.8945,-83.1135,civil,335,Hidden Quarry,Lucasville,Ohio,United States
0OK0,35.6834,-97.4336,civil,732,Edmond,Edmond,Oklahoma,United States
0OK1,34.657,-97.4017,civil,975,Mckey,Elmore City,Oklahoma,United States
0OK3,35.6195,-98.5226,civil,1524,Groendyke Ranch /Pvt/,Geary,Oklahoma,United States
0OK4,34.6606,-96.2536,civil,716,Rock Creek Farm,Coal Gate,Oklahoma,United States
0OK5,35.8889,-97.4003,civil,610,Chappell,Guthrie,Oklahoma,United States
0OK6,35.8017,-97.3861,civil,732,Ellis/Harvey,Guthrie,Oklahoma,United States
0OK8,36.2925,-97.5931,civil,762,Cade's,Covington,Oklahoma,United States
0OK9,36.2134,-96.637,civil,1707,Crystal,Jennings,Oklahoma,United States
0OR1,44.5024,-119.372,civil,503,Wileycreek,Dayville,Oregon,United States
0OR3,42.019,-121.704,civil,594,Long Ranch,Merrill,Oregon,United States
0OR5,42.5035,-122.855,civil,518,East Oregon Cattle Co,Eagle Point,Oregon,United States
0OR6,42.834,-117.629,civil,884,Rome Service Airport,Rome,Oregon,United States
0OR7,44.854,-123.264,civil,579,Marr Field,Monmouth,Oregon,United States
0OR8,42.4848,-122.866,civil,762,Sutton On Rogue,White City,Oregon,United States
0OR9,45.5926,-121.549,civil,579,Hanel Field,Mount Hood,Oregon,United States
0P1,39.8322,-99.5687,civil,789,Van-Pak,Prairie View,Kansas,United States
0P2,39.7948,-76.6472,civil,610,Shoestring Aviation Airfield,Stewartstown,Pennsylvania,United States
0PA0,40.3284,-75.2413,civil,2042,Philadelphia,Hilltown,Pennsylvania,United States
0PA2,40.3168,-77.1247,civil,152,Haunstein,Shermansdale,Pennsylvania,United States
0PA3,41.7495,-76.7602,civil,389,Robbins Farm,Troy,Pennsylvania,United States
0PA4,40.2376,-76.7247,civil,462,Ecko Field,Hummelstown,Pennsylvania,United States
0PA5,41.4945,-79.8309,civil,1564,Fisher,Franklin,Pennsylvania,United States
0PA6,40.6309,-77.8503,civil,549,Hostetler,Huntingdon,Pennsylvania,United States
0PA7,39.8848,-75.4149,civil,366,Linvill,Media,Pennsylvania,United States
0PN0,41.4389,-80.1665,civil,610,Fletcher,Sheakeyville,Pennsylvania,United States
0PN1,40.6994,-79.6189,water,999,Pete's Water Landing,Freeport,Pennsylvania,United States
0PN2,41.0731,-80.0703,civil,655,Flying Acres,Slippery Rock,Pennsylvania,United States
0PN4,40.4129,-77.2414,civil,152,New Bloomfield,New Bloomfield,Pennsylvania,United States
0PN5,41.7792,-79.5984,civil,732,Nichols,Spartansburg,Pennsylvania,United States
0PN6,40.169,-77.9925,civil,527,Memmi,Three Springs,Pennsylvania,United States
0PN7,40.1283,-77.6314,civil,853,Drillmore Acres,Newburg,Pennsylvania,United States
0PN8,41.6167,-79.6831,civil,610,Shriver,Titusville,Pennsylvania,United States
0PN9,41.7195,-79.6778,civil,549,Paul Personal Use,Titusville,Pennsylvania,United States
0PS0,41.3709,-79.3417,civil,671,Frederick Airpark,Tylersburg,Pennsylvania,United States
0PS3,40.4904,-76.7666,civil,388,Carsonville,Carsonville,Pennsylvania,United States
0PS4,41.0084,-78.5609,civil,732,Old Orchard,Curwensville,Pennsylvania,United States
0PS7,40.5223,-76.8455,civil,579,Harman,Elizabethville,Pennsylvania,United States
0Q3,38.2235,-122.45,civil,1280,Sonoma Valley,Schellville-Sonoma,California,United States
0Q4,36.5816,-119.658,civil,759,Selma,Selma,California,United States
0Q5,40.0276,-124.073,civil,1036,Shelter Cove,Shelter Cove,California,United States
0Q6,40.5221,-121.818,civil,713,Shingletown,Shingletown,California,United States
0Q8,37.5235,-120.398,civil,1250,Bonanza Hills,Snelling,California,United States
0Q9,38.2577,-122.434,civil,756,Sonoma Skypark,Sonoma,California,United States
0R0,31.297,-89.8128,civil,2103,Columbia-Marion Co,Columbia,Mississippi,United States
0R1,31.0162,-87.4468,civil,1509,Atmore Mun,Atmore,Alabama,United States
0R2,38.4039,-93.333,civil,893,Lincoln Mun,Lincoln,Missouri,United States
0R3,29.9758,-92.0842,civil,1527,Abbeville Crusta Meml,Abbeville,Louisiana,United States
0R4,31.5668,-91.5001,civil,1128,Concordia Parish,Vidalia,Louisiana,United States
0R5,31.9637,-92.6603,civil,914,Joyce,Winnfield,Louisiana,United States
0R6,33.5251,-92.4585,civil,1341,Hampton Mun,Hampton,Arkansas,United States
0R7,31.9907,-93.3074,civil,1534,The Red River,Coushatta,Louisiana,United States
0R9,39.1945,-99.3034,civil,792,Plainville,Plainville,Kansas,United States
0S0,46.9776,-118.586,civil,975,Lind,Lind,Washington,United States
0S1,47.8458,-113.409,civil,863,Meadow Creek USFS,Meadow Creek,Montana,United States
0S2,39.3772,-99.2951,civil,1067,Stockton Mun,Stockton,Kansas,United States
0S5,46.2374,-116.243,civil,732,Nez Perce Mun,Nez Perce,Idaho,United States
0S7,48.959,-119.412,civil,1222,Scott,Oroville,Washington,United States
0S9,48.0548,-122.81,civil,914,Jefferson Co Intl,Port Townsend,Washington,United States
0SD0,45.425,-100.892,civil,914,Lenling,Glencross,South Dakota,United States
0SD1,42.9722,-96.9802,civil,526,Lodi,Wakonda,South Dakota,United States
0SD3,45.2694,-103.217,civil,1128,Bledsoe Ranch,Hoover,South Dakota,United States
0SD6,44.2889,-101.826,civil,762,Oasis Ranch,Philip,South Dakota,United States
0SD7,43.5244,-101.734,civil,610,Porch Ranch,Wanblee,South Dakota,United States
0SD8,43.7828,-100.293,civil,884,Juhnke,Vivian,South Dakota,United States
0T3,37.3139,-89.9973,civil,792,Twin City,Marble Hill,Missouri,United States
0T7,33.1262,-96.6836,civil,640,Kittyhawk,Allen,Texas,United States
0TA1,34.2195,-101.98,civil,610,Buddy Harmel,Halfway,Texas,United States
0TA2,34.2167,-101.925,civil,1920,Smith Farms,Halfway,Texas,United States
0TA3,30.3043,-102.138,civil,1219,Tate Ranch,Dryden,Texas,United States
0TA4,32.4979,-96.2705,civil,531,Erco Field,Kaufman,Texas,United States
0TA7,30.1482,-103.893,civil,4663,Alta Vista Ranch,Marfa,Texas,United States
0TA8,33.8487,-95.4072,civil,817,Womack Plantation,Paris,Texas,United States
0TE0,29.693,-101.162,civil,1798,Robertson Ranch,Comstock,Texas,United States
0TE3,33.9292,-100.842,civil,1762,Buzz Field,Roaring Springs,Texas,United States
0TE4,31.081,-96.2152,civil,914,Hilltop Lakes,Hilltop Lakes,Texas,United States
0TE5,27.4338,-99.1859,civil,1826,Santa Maria Ranch,Laredo,Texas,United States
0TE6,32.2043,-98.6656,civil,785,Gorman,Gorman,Texas,United States
0TE7,30.2518,-98.6225,civil,1918,Johnson City,Junction,Texas,United States
0TN0,35.6767,-86.8967,civil,533,R & S Buzzard,Spring Hill,Tennessee,United States
0TN1,35.2223,-86.22,water,6001,Tims Ford,Tullahoma,Tennessee,United States
0TN2,35.6559,-84.1855,civil,366,Village,Greenback,Tennessee,United States
0TN5,35.8674,-86.4978,civil,716,McDonald,Murfreesboro,Tennessee,United States
0TN6,36.1834,-84.0991,civil,320,Riner Farm,Norris,Tennessee,United States
0TS0,33.0229,-97.1225,civil,640,Flower Mound,Flower Mound,Texas,United States
0TS1,33.0987,-97.2725,civil,533,Dooley,Justin,Texas,United States
0TS2,32.9487,-97.3289,civil,549,Ultralight International,Haslet,Texas,United States
0TS4,30.0919,-96.795,civil,549,Ullrich,Ledbetter,Texas,United States
0TS5,30.4419,-95.1863,civil,975,Lake Bay Gall,Cleveland,Texas,United States
0TS7,32.8335,-98.1253,civil,853,Flying U,Mineral Wells,Texas,United States
0TS8,26.1504,-97.8836,civil,277,Flying 'k' Ranch,Mercedes,Texas,United States
0TS9,30.0155,-97.7372,civil,384,Jim Roach Field,Ozona,Texas,United States
0TX0,32.4196,-97.7128,civil,853,Nassau Bay,Granbury,Texas,United States
0TX1,32.354,-97.6764,civil,1067,Pecan Plantation,Granbury,Texas,United States
0TX5,33.024,-97.1197,civil,549,Shiloh,Flower Mound,Texas,United States
0TX6,29.5052,-97.9969,civil,671,Elm Creek Airpark,Smiley,Texas,United States
0TX7,32.9501,-97.1503,civil,686,Lazy K Acres,Grapevine,Texas,United States
0TX8,33.1804,-96.0433,civil,549,Jacobia Field,Greenville,Texas,United States
0TX9,33.2501,-96.1169,civil,1311,Card Aerodrome,Greenville,Texas,United States
0U0,44.6424,-115.533,civil,1219,Landmark USFS,Landmark,Idaho,United States
0U1,44.1421,-115.314,civil,869,Warm Springs Creek,Lowman,Idaho,United States
0U2,43.8018,-113.831,civil,1433,Copper Basin,Mackay,Idaho,United States
0U3,44.7446,-114.921,civil,655,Mahoney Creek USFS,Mahoney Creek,Idaho,United States
0U7,43.3249,-113.588,civil,762,Hollow Top,Martin,Idaho,United States
0U8,44.6102,-113.896,civil,1509,May,May,Idaho,United States
0U9,44.4616,-116.758,civil,991,Williams Meml,Midvale,Idaho,United States
0V2,38.5392,-106.046,civil,2240,Alexander,Salida,Colorado,United States
0V3,40.5149,-98.9456,civil,1848,Pioneer Village,Minden,Nebraska,United States
0V4,37.1417,-79.0164,civil,1157,Brookneal-Campbell Co,Brookneal,Virginia,United States
0V5,38.6057,-77.5847,civil,747,Whitman,Manassas,Virginia,United States
0V6,43.3069,-100.628,civil,975,Mission Sioux,Mission,South Dakota,United States
0V7,36.7097,-110.237,civil,2176,Kayenta,Kayenta,Arizona,United States
0VA1,37.2335,-79.5853,civil,610,Johnson Fox Field,Bedford,Virginia,United States
0VA2,37.7965,-79.7667,civil,610,Riverwood,Iron Gate,Virginia,United States
0VA3,37.6988,-77.0953,civil,671,Hunt,Manquin,Virginia,United States
0VA4,36.9501,-79.8795,civil,640,Worley Field,Rocky Mount,Virginia,United States
0VA5,37.6943,-77.6617,civil,1189,Rockville,Richmond,Virginia,United States
0VA7,37.5232,-77.8194,civil,396,Flatrock Air Strip,Richmond,Virginia,United States
0VA8,37.2858,-77.7912,civil,549,Jayarz,Mannboro,Virginia,United States
0VA9,37.4474,-76.4538,civil,305,Handy Strip,Gloucester Court House,Virginia,United States
0VI1,37.6904,-77.0886,civil,914,Brooklyn,Manquin,Virginia,United States
0W0,47.6276,-122.332,water,999,Seattle Seaplanes,Seattle,Washington,United States
0W3,39.5667,-76.2022,civil,1139,Harford Co,Churchville,Maryland,United States
0W7,48.7282,-122.336,water,3048,Floathaven,Bellingham,Washington,United States
0WA0,46.8434,-122.476,civil,975,Elbow Lake Airpark,Yelm,Washington,United States
0WA1,46.6171,-122.826,civil,610,Dwight Field,Chehalis,Washington,United States
0WA2,46.5904,-123.105,civil,721,Curtis,Curtis,Washington,United States
0WA5,46.8918,-122.381,civil,610,Asplund Field,Eatonville,Washington,United States
0WI1,45.5072,-92.1419,civil,4023,Mort's Landing,Comstock,Wisconsin,United States
0WI2,43.2014,-88.3334,civil,792,Doering Farms Airfield,Monches,Wisconsin,United States
0WI4,43.8294,-89.3526,civil,975,Snow Crest Ranch,Montello,Wisconsin,United States
0WI5,42.7934,-87.8906,civil,610,Crash In International,Husher,Wisconsin,United States
0WI6,42.8736,-88.1579,civil,396,Simandl Field/Private,Muskego,Wisconsin,United States
0WI7,44.1336,-88.4993,civil,1097,Wilmer M Zimmerman Civil Air Patrol /Pvt/,Neenah,Wisconsin,United States
0WI8,43.1389,-88.4723,civil,792,Oconomowoc,Oconomowoc,Wisconsin,United States
0WI9,42.9314,-89.3387,civil,792,McManus Hoonch-Na-Shee-Kaw,Oregon,Wisconsin,United States
0WN5,42.7997,-88.0487,civil,46,Potts Field,North Cape,Wisconsin,United States
0XS0,28.4003,-99.5587,civil,1768,Diamond H Ranch,Catarina,Texas,United States
0XS1,29.2878,-96.3497,civil,457,Rodgers Roost,El Campo,Texas,United States
0XS2,30.5549,-100.534,civil,1128,John Fields Ranch,Spicewood,Texas,United States
0XS6,30.501,-98.147,civil,914,Lakeside Beach,Spofford,Texas,United States
0XS7,29.1919,-100.275,civil,1829,Anacacho Ranch,Spring Branch,Texas,United States
0XS8,29.0761,-100.375,civil,975,Dunbar Ranch,Spring Branch,Texas,United States
0XS9,28.9378,-95.7502,civil,1021,Fay Ranch,Cedar Lane,Texas,United States
0Y4,43.1625,-95.4669,civil,762,Lambert Fechter Mun,Hartley,Iowa,United States
0Y6,43.4166,-93.5085,civil,1030,Lake Mills Mun,Lake Mills,Iowa,United States
0Z2,63.1082,-147.532,civil,305,Road Commission Nr 1,Denali,Alaska,United States
0Z3,59.059,-158.577,water,427,Shannons Pond,Dillingham,Alaska,United States
10AK,61.5914,-149.678,civil,244,Hunt Strip,Wasilla,Alaska,United States
10AZ,33.3667,-112.619,civil,1038,Pierce,Buckeye,Arizona,United States
10C,42.4029,-88.3751,civil,1505,Galt,Greenwood/Wonder Lake,Illinois,United States
10CL,35.368,-119.195,civil,701,Joe Gottlieb Field,Bakersfield,California,United States
10CO,39.4547,-102.213,civil,914,Silkman Farms Inc,Burlington,Colorado,United States
10D,44.95,-94.0669,civil,990,Winsted Mun,Winsted,Minnesota,United States
10F,33.0154,-98.6253,civil,1097,Rosser Ranch,Graham,Texas,United States
10FA,28.7975,-81.9359,civil,785,Flying Baron Estates,Leesburg,Florida,United States
10FD,30.588,-85.0699,civil,812,Altha International,Altha,Florida,United States
10G,40.5372,-81.9544,civil,1064,Holmes Co,Millersburg,Ohio,United States
10GA,33.3251,-84.2983,civil,640,Beaverbrook Aerodrome,Griffin,Georgia,United States
10IA,42.4167,-92.2502,civil,733,Flyers,Waterloo,Iowa,United States
10ID,43.4944,-113.922,civil,914,Flat Top Airstrip,Muldoon,Idaho,United States
10IN,39.7184,-85.0489,civil,792,Squires,Connersville,Indiana,United States
10IS,38.6987,-90.0625,civil,549,Lakeside - Nichols Rla,East St Louis/Granite City,Illinois,United States
10K,41.4708,-98.7462,civil,561,Scotia Mun,Scotia,Nebraska,United States
10LA,30.2474,-92.096,civil,653,Industrial Helicopters Inc.,Scott,Louisiana,United States
10M,44.8142,-70.3453,civil,701,Lindbergh,Avon,Maine,United States
10MA,42.2626,-72.307,water,999,Beaver Lake,Ware,Massachusetts,United States
10MN,46.4375,-93.9561,water,999,Lookout Lake,Ironton,Minnesota,United States
10MO,38.9145,-91.7043,civil,610,Eckerts Airstrip,Williamsburg,Missouri,United States
10MT,47.8333,-106.484,civil,1554,Hoolie,Haxby,Montana,United States
10ND,47.1875,-102.362,civil,945,Smith Strip,Halliday,North Dakota,United States
10OH,41.4028,-82.6291,civil,427,Zoellner,Huron,Ohio,United States
10OK,35.1667,-97.217,civil,792,Hickory Hills,Norman,Oklahoma,United States
10OR,45.7893,-123.232,civil,305,Stevens Mountain,Vernonia,Oregon,United States
10TE,29.6669,-97.5003,civil,602,Gottwald Field,Henly,Texas,United States
10TS,29.5525,-98.1031,civil,274,Saint's Strip,Mason,Texas,United States
10U,41.9532,-116.188,civil,2042,Owyhee,Owyhee,Nevada,United States
10VA,37.3863,-78.8131,civil,549,Nashs,Appomattox,Virginia,United States
10WA,47.5546,-117.413,civil,671,Mullan Hill,Spokane,Washington,United States
10WI,45.1158,-88.1895,civil,640,Buds Landing,Pound,Wisconsin,United States
11A,31.8833,-85.4849,civil,1464,Clayton Mun,Clayton,Alabama,United States
11AK,63.9996,-145.502,civil,1341,Delta Airmotive,Delta Junction,Alaska,United States
11AZ,31.6837,-110.29,civil,1173,Whetstone,Huachuca City,Arizona,United States
11CA,36.6733,-119.722,civil,549,Turner Field,Fowler,California,United States
11CL,34.63,-117.653,civil,1791,Hansen,Adelanto,California,United States
11FA,25.5837,-80.4998,civil,751,B & L Farms,Homestead,Florida,United States
11FL,30.043,-81.8809,civil,914,Williams Field,Middleburg,Florida,United States
11G,42.9211,-82.5855,civil,792,Johnson Field,Smiths Creek,Michigan,United States
11ID,42.1855,-116.113,civil,945,Riddle,Riddle,Idaho,United States
11II,39.3417,-86.0305,civil,1250,Atterbury Field (Camp Atterbury),Nineveh,Indiana,United States
11IN,39.8189,-86.5381,civil,815,Jr's,Danville,Indiana,United States
11J,31.3956,-84.893,civil,1524,Early Co,Blakely,Georgia,United States
11K,41.1292,-97.5776,civil,674,Stromsburg Mun,Stromsburg,Nebraska,United States
11KS,39.1167,-95.1489,civil,1097,Sheller's,Tonganoxie,Kansas,United States
11L,34.835,-114.957,civil,914,Camino Airstrip,Goffs,California,United States
11LA,29.2588,-89.353,water,999,Tiger Pass,Venice,Louisiana,United States
11LL,40.7231,-88.7631,civil,686,Thacker,Chenoa,Illinois,United States
11M,34.352,-88.3773,civil,916,Fulton-Itawamba Co,Fulton,Mississippi,United States
11MA,41.8073,-70.7584,civil,366,Bulljump,Wareham,Massachusetts,United States
11MN,47.6778,-93.0482,water,6001,Sixberry's Landing,Chisholm,Minnesota,United States
11MO,38.9017,-91.6352,civil,640,Redgate Ranch,Williamsburg,Missouri,United States
11MT,46.9791,-112.005,civil,1463,Ox Bow Ranch,Helena,Montana,United States
11N,41.5668,-73.4662,civil,884,Candlelight Farms,New Milford,Connecticut,United States
11ND,47.4253,-102.384,civil,856,Evinger Strip,Halliday,North Dakota,United States
11NE,42.4425,-103.916,civil,762,Kaan,Harrison,Nebraska,United States
11NY,42.209,-76.4497,civil,488,Saikkonen,Spencer,New York,United States
11OA,39.6431,-82.4668,civil,701,Hide-A-Way Hills Resort,Bremen,Ohio,United States
11OG,44.4513,-118.187,civil,732,Unity,Unity,Oregon,United States
11OH,40.6639,-82.8546,civil,610,Iberia Landing Strip,Iberia,Ohio,United States
11OK,35.0723,-97.3836,civil,579,Beefor Ranch,Purcell,Oklahoma,United States
11OR,43.3935,-123.285,civil,678,Holiday Sky Ranch,Sutherlin,Oregon,United States
11Q,36.7036,-120.135,civil,1201,Du Bois Ranch,Kerman,California,United States
11R,30.219,-96.3743,civil,1679,Brenham Mun,Brenham,Texas,United States
11S,48.2665,-124.307,civil,908,Sekiu,Sekiu,Washington,United States
11TE,32.3001,-97.2045,civil,579,Flying M Ranch,Grandview,Texas,United States
11TS,31.6579,-96.4114,civil,722,Pt Enterprise D&W Ranch,Mexia,Texas,United States
11TX,33.6668,-96.6906,civil,610,Butler,Sherman,Texas,United States
11V,40.3305,-104.609,civil,1875,Easton,Greeley,Colorado,United States
11WA,47.5238,-117.47,civil,732,Homeport,Spokane,Washington,United States
11WN,43.3542,-89.5712,water,999,Diedrich,Lodi,Wisconsin,United States
11Z,63.9106,-149.024,civil,366,Lignite,Lignite,Alaska,United States
12AR,35.1784,-92.3354,civil,978,Arkavalley,Arkavalley,Arkansas,United States
12AZ,33.8539,-112.653,civil,732,Ranta Strip,Morristown,Arizona,United States
12CA,38.1096,-121.169,civil,549,Faber Vineyards,Lodi,California,United States
12CL,36.1569,-119.85,civil,850,Newton Field,Stratford,California,United States
12CO,38.8355,-107.815,civil,427,Omega 1,Hotchkiss,Colorado,United States
12D,47.8183,-92.2917,civil,1036,Tower Mun,Tower,Minnesota,United States
12FA,28.4786,-81.7145,civil,549,Hi-Acres,Clermont,Florida,United States
12G,40.8729,-82.6974,civil,1544,Shelby Community,Shelby,Ohio,United States
12I,39.5106,-84.998,water,6001,Brookville Reservoir,Brookville,Indiana,United States
12ID,44.968,-114.733,civil,610,Flying B Ranch Landing Strip,Salmon,Idaho,United States
12II,39.8562,-84.9722,civil,762,Pentecost,Centerville,Indiana,United States
12IL,41.2,-88.0167,civil,396,Hawker,Kankakee,Illinois,United States
12IN,38.1186,-87.6475,civil,588,J & S Field,Darmstadt,Indiana,United States
12J,31.0506,-87.0656,civil,4524,Brewton Mun,Brewton,Alabama,United States
12K,40.0464,-98.0601,civil,2042,Superior Mun,Superior,Nebraska,United States
12KS,37.9353,-97.4878,civil,792,Sooter,Sedgwick,Kansas,United States
12KY,38.4603,-85.1686,civil,762,John M. Foree,New Castle,Kentucky,United States
12LA,30.2759,-93.3574,civil,1067,Kml,Sulphur,Louisiana,United States
12LL,37.5403,-89.4862,civil,671,Lambdins Field,Wolf Lake,Illinois,United States
12ME,44.3223,-69.2073,civil,457,Ridgeview Airport,Searsmont,Maine,United States
12MI,43.0517,-83.4919,civil,564,John's,Davison,Michigan,United States
12MN,46.4805,-94.2811,water,999,Eastman,Lake Hubert,Minnesota,United States
12MO,38.5806,-93.5947,civil,914,Ferguson Farms,Windsor,Missouri,United States
12MS,31.0931,-91.319,civil,335,Green Acres,Woodville,Mississippi,United States
12MT,48.7742,-110.442,civil,1042,Lincolns Field,Hingham,Montana,United States
12N,41.0086,-74.738,civil,604,Aeroflex-Andover,Andover,New Jersey,United States
12NC,34.8833,-76.35,civil,3278,Atlantic Field Mcolf,Atlantic,North Carolina,United States
12ND,48.2953,-101.427,civil,610,Pietschtree Airstrip,Burlington,North Dakota,United States
12NE,41.9066,-103.7,civil,610,Reisig Brothers,Scottsbluff,Nebraska,United States
12NM,31.7918,-107.638,civil,1524,Columbus Stockyards,Columbus,New Mexico,United States
12OH,39.8348,-84.3347,civil,314,Mcgregor Airfield,Brookville,Ohio,United States
12OK,35.5413,-97.4531,civil,1021,Expressway Airpark,Oklahoma City,Oklahoma,United States
12OR,42.9513,-117.282,civil,671,Skinner Ranch,Jordan Valley,Oregon,United States
12PA,40.1898,-75.6152,civil,411,Emery Field,Pottstown,Pennsylvania,United States
12R,29.8738,-96.0044,civil,600,Mikeska,Brookshire,Texas,United States
12S,44.8318,-119.43,civil,652,Monument Mun,Monument,Oregon,United States
12SC,34.1414,-80.7467,civil,732,Over The Hill,Elgin,South Carolina,United States
12TE,31.3168,-99.2337,civil,701,Curtis Ranch Field,Brady,Texas,United States
12TS,32.9085,-97.9773,civil,975,Blo,Mineral Wells,Texas,United States
12TX,30.8214,-98.0806,civil,610,Griffin,Bertram,Texas,United States
12V,38.4409,-82.2008,civil,962,Ona,Milton,West Virginia,United States
12VA,37.7897,-79.7708,civil,655,Hop-Along,Clifton Forge,Virginia,United States
12WA,47.5207,-117.463,civil,472,Fowlers Nw 40,Spokane,Washington,United States
12XS,34.9547,-91.8372,civil,747,McCroskey Field,Butlerville,Arkansas,United States
12Y,44.4375,-93.9127,civil,916,Le Sueur Mun,Le Sueur,Minnesota,United States
13AK,61.6495,-149.886,civil,299,Satterburgs,Houston,Alaska,United States
13AZ,34.9806,-112.297,civil,732,Bar Heart Ranch,Drake,Arizona,United States
13C,43.4521,-85.2648,civil,1065,Lakeview-Griffith,Lakeview,Michigan,United States
13CL,38.3813,-121.824,civil,594,Maine Prairie,Dixon,California,United States
13FA,29.6944,-81.5137,civil,701,Earle Airpark,Hastings,Florida,United States
13GA,31.3666,-83.7549,civil,1036,Oak Ridge Plantation,Sylvester,Georgia,United States
13IA,42.0457,-90.1911,civil,259,Hillside Stables,Sabula,Iowa,United States
13ID,44.2666,-115.001,civil,488,Silva Ranch,Stanley,Idaho,United States
13IL,41.0414,-90.8946,civil,610,Shissler Farm Inc.,Keithsburg,Illinois,United States
13IN,40.8153,-84.9277,civil,671,Gage,Decatur,Indiana,United States
13IS,39.3473,-90.6026,civil,1219,The Adwell Corporation,Eldred,Illinois,United States
13K,37.8516,-96.2917,civil,1704,Eureka Mun,Eureka,Kansas,United States
13KS,37.6978,-97.1103,civil,610,Daniel's Landing,Andover,Kansas,United States
13KY,37.7056,-87.1561,civil,610,Miles,Owensboro,Kentucky,United States
13MN,46.1008,-95.8314,civil,488,Melby,Ashby,Minnesota,United States
13MO,37.6764,-91.7065,civil,610,Domeyer,Lenox,Missouri,United States
13MT,48.5208,-110.113,civil,701,Sorenson,Kremlin,Montana,United States
13N,40.9668,-74.7802,civil,586,Trinca,Andover,New Jersey,United States
13NC,35.0335,-77.2497,civil,3749,Oak Grove Mcolf,Pollocksville,North Carolina,United States
13ND,47.4875,-97.6231,civil,671,Rygg,Portland,North Dakota,United States
13NE,40.3167,-100.809,civil,792,Hock,Culbertson,Nebraska,United States
13NM,33.4195,-108.139,civil,1170,Beaverhead Airstrip,Silver City,New Mexico,United States
13OH,41.3303,-84.2983,civil,686,Rose Field,Jewell,Ohio,United States
13OR,43.7407,-122.426,civil,594,Aubrey Mountain Airstrip,Oakridge,Oregon,United States
13PA,41.6826,-79.452,civil,632,Rigrtona,Tidioute,Pennsylvania,United States
13PN,40.4543,-75.3046,civil,268,Richland Acres,Quakertown,Pennsylvania,United States
13Q,38.8166,-121.701,civil,488,Sunrise Dusters,Knights Landing,California,United States
13S,62.2829,-146.519,water,999,Lake Louise,Lake Louise,Alaska,United States
13TE,30.656,-96.5383,civil,710,Varisco,Bryan,Texas,United States
13TS,27.4553,-98.9264,civil,914,Van Es Ranch,Oilton,Texas,United States
13TX,30.5313,-100.451,civil,2012,Allison Ranch,Spicewood,Texas,United States
13W,48.257,-122.437,civil,533,Camano I,Stanwood,Washington,United States
13WI,43.6964,-88.9996,civil,1475,Nowatzski Field,Markesan,Wisconsin,United States
13XS,34.9354,-92.1921,civil,405,Bethal,Jacksonville,Arkansas,United States
13Y,48.4166,-93.5863,civil,914,Littlefork Mun/Hanover,Littlefork,Minnesota,United States
13Z,55.6013,-131.637,water,3048,Loring,Loring,Alaska,United States
14A,35.6143,-80.9004,civil,914,Lake Norman,Mooresville,North Carolina,United States
14AK,61.6015,-149.248,civil,396,Four Corners,Palmer,Alaska,United States
14AZ,31.9083,-111.122,civil,1311,Ruby Star Airpark,Green Valley,Arizona,United States
14CO,38.0972,-104.91,civil,762,Good Pasture,Beulah,Colorado,United States
14F,32.8501,-100.138,civil,975,Hamlin Mun,Hamlin,Texas,United States
14FA,25.5701,-80.3998,civil,1219,Burrs Strip,Miami,Florida,United States
14FD,29.9491,-81.4904,civil,762,Sunshine Farms,St Augustine,Florida,United States
14FL,30.8655,-87.1777,civil,610,Wells Flying Service,Jay,Florida,United States
14G,41.3342,-83.1599,civil,1988,Fremont,Fremont,Ohio,United States
14I,39.6334,-83.7499,civil,372,Bloom,Jamestown,Ohio,United States
14IN,41.207,-87.2125,civil,792,De Motte,De Motte,Indiana,United States
14J,31.4099,-86.0888,civil,1585,Folsom,Elba,Alabama,United States
14KS,38.2692,-94.9048,civil,792,G & S Space Port,Parker,Kansas,United States
14KY,38.1737,-84.3683,civil,683,Blue Haven Farm,Paris,Kentucky,United States
14LA,30.841,-91.5082,civil,884,Killarny Farm,St Francisville,Louisiana,United States
14M,33.1826,-90.8307,civil,914,Hollandale Mun,Hollandale,Mississippi,United States
14MI,42.8509,-85.567,civil,305,East-West Paris,Dutton,Michigan,United States
14MN,44.6658,-93.2772,water,999,Lake Marion,Lakeville,Minnesota,United States
14MO,39.05,-94.3169,civil,579,Stevinson Farm,Blue Springs,Missouri,United States
14MT,47.0516,-109.075,civil,1280,Holland Ranch,Lewistown,Montana,United States
14N,40.8443,-75.6355,civil,616,Beltzville,Lehighton,Pennsylvania,United States
14NC,34.5167,-77.55,civil,3048,Camp Davis Mcolf,Holly Ridge,North Carolina,United States
14ND,46.2078,-102.908,civil,646,Hagen Private,Reeder,North Dakota,United States
14NE,40.8625,-98.0642,civil,805,Aaron's Field,Aurora,Nebraska,United States
14NY,42.139,-76.3858,civil,457,Kohn,Straits Corners,New York,United States
14OH,40.6689,-83.4435,civil,610,Heilman,Kenton,Ohio,United States
14OI,40.9192,-82.114,civil,762,Pleasant Home Gliding Club,Pleasant Home,Ohio,United States
14OK,35.8042,-97.9337,civil,671,Reherman,Kingfisher,Oklahoma,United States
14P,38.8239,-81.3494,civil,914,Boggs Field,Spencer,West Virginia,United States
14PA,40.2909,-75.6591,civil,396,Dimascio Field,Pottstown,Pennsylvania,United States
14R,30.5155,-96.7041,civil,992,Caldwell Mun,Caldwell,Texas,United States
14S,46.8973,-124.101,civil,686,Westport,Westport,Washington,United States
14TA,29.8986,-98.4031,civil,457,Dean Ranch,Stockdale,Texas,United States
14TE,30.9168,-99.4837,civil,823,Smith I-Ranch,Hondo,Texas,United States
14TS,27.4217,-98.6045,civil,1842,O S Wyatt,Realitos,Texas,United States
14TX,30.2894,-98.1739,civil,610,Keyes Ranch,Eagle Pass,Texas,United States
14VA,39.229,-77.7467,civil,579,Krens Farm,Hillsboro,Virginia,United States
14WA,48.2365,-122.452,civil,533,Livingston Bay,Stanwood,Washington,United States
14WI,45.1797,-91.5182,civil,579,Flying O,New Auburn,Wisconsin,United States
14WS,45.778,-91.5585,civil,747,Lakewood Lodge,Stone Lake,Wisconsin,United States
14XS,30.8085,-97.2739,civil,549,Isbell Ranch,Davilla,Texas,United States
14Y,45.8986,-94.8739,civil,914,Todd,Long Prairie,Minnesota,United States
15A,30.9132,-87.9806,civil,610,Reynolds/North Mobile Co,Creola,Alabama,United States
15AK,63.3707,-148.85,civil,639,Golden North Airfield,Cantwell,Alaska,United States
15AZ,33.7445,-114.477,civil,1219,Quail Mesa,Quartzsite,Arizona,United States
15CL,37.3427,-120.404,civil,701,Hunt Farms,Merced,California,United States
15F,33.1916,-99.7179,civil,1046,Haskell Mun,Haskell,Texas,United States
15FD,30.6585,-85.5299,civil,668,Orange Hill,Wausau,Florida,United States
15FL,30.1537,-82.6664,civil,1769,Cannon Creek Airpark,Lake City,Florida,United States
15G,41.0284,-81.7985,civil,719,Weltzien,Wadsworth,Ohio,United States
15GA,32.6802,-82.479,civil,762,Darla's,Kite,Georgia,United States
15IL,41.7973,-89.2732,civil,701,Gittleson Farms,Franklin Grove,Illinois,United States
15IS,40.2923,-88.3601,civil,805,Furtney,Fisher,Illinois,United States
15J,31.1378,-83.4531,civil,2439,Cook Co,Adel,Georgia,United States
15KS,38.4306,-96.0883,civil,701,Sickler Airstrip,Emporia,Kansas,United States
15KY,38.157,-84.3016,civil,774,Brennan Farm,Paris,Kentucky,United States
15LL,41.2375,-89.5367,civil,762,Cloverleaf Ranch,Tiskilwa,Illinois,United States
15M,34.7723,-88.1659,civil,975,Iuka,Iuka,Mississippi,United States
15MA,41.4223,-70.9095,civil,213,Canapitsit,Gosnold,Massachusetts,United States
15MN,45.2622,-94.5107,civil,762,Tyler Farms,Watkins,Minnesota,United States
15MO,40.392,-92.5655,civil,700,Applegate,Queen City,Missouri,United States
15MT,48.5,-105.901,civil,457,Saubak,Lustre,Montana,United States
15N,39.1196,-75.5838,civil,1487,Jenkins,Wyoming,Delaware,United States
15NC,36.2397,-76.9739,civil,549,Dragonfly Field,Ahoskie,North Carolina,United States
15NE,40.2911,-98.8234,civil,884,Sindt,Upland,Nebraska,United States
15PA,41.5943,-75.3555,civil,488,Cavage Personal Use,Prompton,Pennsylvania,United States
15Q,37.1911,-120.276,civil,671,Johnson Ranch,Le Grand,California,United States
15S,47.2151,-121.462,civil,122,Lester State,Lester,Washington,United States
15TA,30.2544,-99.947,civil,975,J R Ranch,Briggs,Texas,United States
15TX,32.3043,-98.3253,civil,472,Ed Shadle Private,Stephenville,Texas,United States
15VA,38.7223,-77.8997,civil,594,Fox Acres,Warrenton,Virginia,United States
15W,42.8945,-84.3903,civil,573,Dennis Farms,Laingsburg,Michigan,United States
15WA,48.2723,-122.357,civil,610,Sunset,Stanwood,Washington,United States
15WI,42.9275,-89.4182,civil,792,Peterson Field,Oregon,Wisconsin,United States
15XS,29.3327,-95.3341,civil,584,Toy Airpark,Liverpool,Texas,United States
15Z,61.4371,-142.904,civil,1067,McCarthy No 2,McCarthy,Alaska,United States
16A,60.9058,-162.439,civil,622,Nunapitchuk,Nunapitchuk,Alaska,United States
16AK,61.5992,-149.347,civil,366,Gattis Strip,Wasilla,Alaska,United States
16AR,35.3011,-92.5733,civil,610,Heifer Creek Ranch,Springfield,Arkansas,United States
16AZ,34.5089,-112.68,civil,884,Quarter Circle J Ranch,Skull Valley,Arizona,United States
16CO,40.9083,-105.084,civil,1676,Rawhide Strip,Buckeye,Colorado,United States
16D,46.6041,-95.6045,civil,1248,Perham Mun,Perham,Minnesota,United States
16FA,26.0309,-81.0387,civil,817,Little Deer,Ochopee,Florida,United States
16FD,29.405,-81.4959,civil,1036,Skinners Wholesale Nursery,Crescent City,Florida,United States
16FL,30.7252,-87.2014,civil,914,J-22 Ranch,Milton,Florida,United States
16G,41.0941,-83.2125,civil,1218,Seneca Co,Tiffin,Ohio,United States
16IA,41.8808,-94.7772,civil,732,Stangl,Coon Rapids,Iowa,United States
16II,41.1831,-86.9336,civil,792,Harrington Field,San Pierre,Indiana,United States
16IL,42.0667,-88.8334,civil,1219,Harold Bunger,Kirkland,Illinois,United States
16IS,37.5778,-89.0092,civil,671,Kellums,Goreville,Illinois,United States
16J,31.7433,-84.4193,civil,1375,Dawson Mun,Dawson,Georgia,United States
16K,55.7849,-133.594,water,3048,Port Alice,Port Alice,Alaska,United States
16KS,37.9417,-100.779,civil,1615,Seng,Garden City,Kansas,United States
16KY,38.444,-83.1227,civil,732,Praise God,Carter,Kentucky,United States
16MI,42.8875,-83.8666,civil,396,Barnstormers 5,Gaines,Michigan,United States
16MN,48.8319,-94.7044,water,999,Baudette Flying Service,Baudette,Minnesota,United States
16MO,38.4056,-91.1574,civil,579,Findley Field,Beaufort,Missouri,United States
16MT,45.4052,-109.13,civil,1006,Bangart Field,Roberts,Montana,United States
16NC,36.1961,-76.6653,civil,1257,Lee's,Edenton,North Carolina,United States
16NE,40.56,-96.4917,civil,1116,Korver,Panama,Nebraska,United States
16NJ,39.9373,-74.1357,water,999,Hummel,Island Heights,New Jersey,United States
16OI,40.1253,-84.5825,civil,792,Trump,Greenville,Ohio,United States
16OK,35.4667,-97.2003,civil,549,Lower Forty,Harrah,Oklahoma,United States
16PA,40.1806,-80.1276,civil,762,Gregg,Eighty Four,Pennsylvania,United States
16S,42.9985,-123.31,civil,792,Myrtle Creek Mun,Myrtle Creek,Oregon,United States
16SC,34.6251,-81.8984,civil,1158,Southern Aero Sports,Cross Anchor,South Carolina,United States
16TA,30.9197,-103.783,civil,1707,Seven Springs,Toyahvale,Texas,United States
16TE,32.6976,-95.2077,civil,823,Holly Lake Ranch,Hawkins,Texas,United States
16TS,32.2227,-95.318,civil,457,Pineridge,Tyler,Texas,United States
16TX,32.264,-98.1073,civil,579,Ratliff,Stephenville,Texas,United States
16U,40.058,-115.506,civil,1372,Ft Ruby Ranch,Ruby Valley,Nevada,United States
16W,46.5832,-118.001,civil,1036,Little Goose Lock & Dam,Starbuck,Washington,United States
16WA,47.8447,-117.694,civil,462,Tightcliff,Nine Mile Falls,Washington,United States
16WI,46.1216,-89.121,water,6001,Lac Vieux Desert,Phelps,Wisconsin,United States
16XS,33.0807,-97.3589,civil,914,Propwash,Justin,Texas,United States
16Z,62.958,-155.593,water,999,McGrath,McGrath,Alaska,United States
17AZ,32.7362,-111.449,civil,1219,Newman Peak Ranch,Picacho,Arizona,United States
17CL,37.088,-122.274,civil,396,Las Trancas,Davenport,California,United States
17CO,37.0881,-108.165,civil,366,Monte Madeira,Red Mesa,Colorado,United States
17FA,26.7134,-81.5353,civil,4072,Cotton Strip,La Belle,Florida,United States
17FL,29.2803,-82.1248,civil,3411,Greystone,Ocala,Florida,United States
17G,40.7816,-82.9748,civil,2080,Port Bucyrus-Crawford Co,Bucyrus,Ohio,United States
17II,41.45,-86.5103,civil,792,Dreessen Field,Walkerton,Indiana,United States
17IN,38.9784,-85.1097,civil,945,Pruss,Farmers Retreat,Indiana,United States
17J,31.0069,-84.8776,civil,3717,Donalsonville Mun,Donalsonville,Georgia,United States
17K,36.7743,-102.51,civil,1893,Boise City,Boise City,Oklahoma,United States
17KS,38.5028,-95.6772,civil,762,Tevis,Melvern,Kansas,United States
17KY,37.3939,-87.2589,civil,610,Shannon Field,Sacramento,Kentucky,United States
17L,33.5972,-116.883,civil,945,Ernst Field,Hemet,California,United States
17LL,40.1606,-88.4103,civil,610,Oink Acres,Mahomet,Illinois,United States
17LS,30.6057,-91.9918,civil,805,Yankee Field,Port Barre,Louisiana,United States
17M,31.8613,-89.8029,civil,946,Magee Mun,Magee,Mississippi,United States
17MN,46.7169,-93.2102,water,999,Kivi/Mokki,McGregor,Minnesota,United States
17MO,38.985,-91.5349,civil,914,Rgl Field,Montgomery City,Missouri,United States
17N,39.7055,-75.033,civil,1065,Cross Keys,Cross Keys,New Jersey,United States
17NC,34.4663,-78.3286,civil,640,Mitchell Field,Elizabethtown,North Carolina,United States
17OH,41.2426,-82.2702,civil,884,Kosik Private,Kipton,Ohio,United States
17OI,39.2267,-83.3177,civil,585,Haas,Bainbridge,Ohio,United States
17OK,36.525,-97.7587,civil,463,J-B Airstrip,Kremlin,Oklahoma,United States
17OR,43.2642,-123.11,civil,701,Glide Aero,Glide,Oregon,United States
17S,45.3237,-123.054,civil,696,Chehalem,Newberg,Oregon,United States
17SC,34.5326,-81.8862,civil,732,Carolina Cow Country,Clinton,South Carolina,United States
17TE,29.9291,-98.9403,civil,594,Comfort Airpark,Comfort,Texas,United States
17TX,32.4487,-98.255,civil,975,Kimzey,Stephenville,Texas,United States
17U,40.2637,-112.021,civil,1524,Garn,Eagle Mountain,Utah,United States
17V,40.625,-102.603,civil,1679,Haxtun Mun,Haxtun,Colorado,United States
17WI,43.0361,-88.8932,civil,762,Ha-Rail,Lake Mills,Wisconsin,United States
17XS,29.2652,-103.765,civil,1433,Lajitas,Lajitas,Texas,United States
17Y,46.6188,-93.3098,civil,1036,Iverson,McGregor,Minnesota,United States
17Z,58.989,-159.05,civil,835,Manokotak,Manokotak,Alaska,United States
18A,34.3401,-83.1335,civil,1067,Franklin Co,Canon,Georgia,United States
18AZ,33.8181,-111.898,civil,1230,Sky Ranch At Carefree,Carefree,Arizona,United States
18CL,39.286,-121.694,civil,792,Bowles,Live Oak,California,United States
18FA,27.1028,-80.2934,civil,634,Tropical Plantation,Palm City,Florida,United States
18FD,30.8541,-86.6672,civil,895,Sky Ranch,Baker,Florida,United States
18GA,33.6932,-83.6577,civil,792,Sleepy Hollow,Social Circle,Georgia,United States
18I,36.6959,-84.3916,civil,914,McCreary Co,Pine Knot,Kentucky,United States
18II,40.12,-86.0683,civil,792,McGill,Cicero,Indiana,United States
18IN,39.2784,-87.4136,civil,1554,Kester Fly Inn,Farmersburg,Indiana,United States
18K,37.3842,-100.186,civil,704,Fowler,Fowler,Kansas,United States
18KS,37.3709,-97.1073,civil,762,Cherokee Strip,Udall,Kansas,United States
18LL,38.5597,-89.3419,civil,549,Rakers,Carlyle,Illinois,United States
18MN,46.2372,-94.5931,civil,792,Hines Farm,Motley,Minnesota,United States
18MO,36.9626,-93.1707,civil,792,Gimlin,Ozark,Missouri,United States
18NC,35.889,-81.6137,civil,229,Lanni Field,Lenoir,North Carolina,United States
18NE,40.5139,-97.6106,civil,1128,Doc's,Geneva,Nebraska,United States
18NY,42.0165,-74.049,civil,610,Strip In The Woods,Woodstock,New York,United States
18OH,41.2562,-82.1438,civil,792,Jer-Mar Airpark,Lagrange,Ohio,United States
18OI,41.423,-82.9826,civil,768,Boggy Bottoms,Vickery,Ohio,United States
18OR,44.2732,-120.795,civil,518,Tailwheel,Prineville,Oregon,United States
18PA,40.3001,-75.0829,civil,488,Slack,Forest Grove,Pennsylvania,United States
18PN,40.0654,-77.6928,civil,500,Spud View,Upper Strasburg,Pennsylvania,United States
18SC,34.274,-81.7734,civil,610,Connelly Fld,Silverstreet,South Carolina,United States
18TA,30.1363,-99.7437,civil,1372,West Kerr Ranch,Karnes City,Texas,United States
18TE,32.5852,-95.0639,civil,1552,Alert Field,Big Sandy,Texas,United States
18TX,32.9525,-96.2281,civil,1067,Flying 't' Ranch,Caddo Mills,Texas,United States
18V,40.1,-104.701,civil,2012,Platte Valley,Hudson,Colorado,United States
18XS,33.8001,-101.034,civil,732,Gardner Farm,McAdoo,Texas,United States
18Y,45.7725,-93.6322,civil,884,Milaca Mun,Milaca,Minnesota,United States
19A,34.174,-83.5607,civil,2012,Jackson Co,Jefferson,Georgia,United States
19AK,59.969,-141.662,civil,1045,Icy Bay,Icy Bay,Alaska,United States
19AR,35.1567,-92.2242,civil,518,Naylor Field,Naylor,Arkansas,United States
19AZ,34.605,-111.865,civil,1006,Montezuma,Camp Verde,Arizona,United States
19CL,34.7122,-117.351,civil,1158,Palisades Ranch,Helendale,California,United States
19GA,33.4237,-84.4999,civil,914,Willow Pond Aviation Inc,Fayetteville,Georgia,United States
19IL,41.5134,-89.2295,civil,579,Keutzer,La Moille,Illinois,United States
19IN,40.1945,-86.5231,civil,366,Clark,Frankfort,Indiana,United States
19IS,38.2959,-88.557,civil,789,Skillet Fork Farm,Wayne City,Illinois,United States
19K,38.7667,-94.5877,civil,1375,Villnave,Belton,Missouri,United States
19KY,38.7065,-84.5999,civil,610,Conrads,Dry Ridge,Kentucky,United States
19LL,41.257,-87.9195,civil,591,Neiner,Manteno,Illinois,United States
19M,33.1255,-90.0256,civil,977,Moore,Lexington,Mississippi,United States
19MN,45.2902,-92.9544,water,999,Waldref,Forest Lake,Minnesota,United States
19N,39.7784,-74.9478,civil,945,Camden Co,Berlin,New Jersey,United States
19NC,36.0649,-77.923,civil,732,Double S,Red Oak,North Carolina,United States
19ND,47.7333,-98.4887,civil,792,Breckheimer,Tolna,North Dakota,United States
19NY,42.4062,-77.9608,civil,762,Four Seasons,Reading,New York,United States
19OH,41.1731,-82.0593,civil,549,Harris Corn Field,Litchfield,Ohio,United States
19OK,35.7284,-95.9772,civil,1204,Gerhart,Okmulgee,Oklahoma,United States
19OR,45.1096,-121.224,civil,762,Nelson Ranch,Maupin,Oregon,United States
19P,56.3288,-133.61,water,999,Port Protection,Port Protection,Alaska,United States
19PA,41.117,-76.5208,civil,152,Lake,Millville,Pennsylvania,United States
19SC,34.3501,-81.7832,civil,518,Sexton,Newberry,South Carolina,United States
19T,38.1334,-92.7335,water,999,Tan Tar A Resort,Osage Beach,Missouri,United States
19TA,32.8223,-96.4169,civil,945,Lagrone Ranch,McClendon-Chisholm,Texas,United States
19TE,30.3169,-95.3335,civil,884,Cut And Shoot,Conroe,Texas,United States
19TX,31.2382,-97.5142,civil,975,Woody McClellan Ranch,Temple,Texas,United States
19VA,36.8897,-82.2978,civil,488,Flying W,St. Paul,Virginia,United States
19WA,45.7196,-121.886,civil,701,Key Way,Stevenson,Washington,United States
19WI,45.1952,-92.0571,civil,671,Erickson Field,Prairie Farm,Wisconsin,United States
19XS,32.2972,-97.0869,civil,762,Draggintail Acres,Maypearl,Texas,United States
1A0,35.1876,-85.1777,civil,945,Dallas Bay,Chattanooga,Tennessee,United States
1A1,42.1487,-73.751,civil,693,Green Acres,Livingston,New York,United States
1A2,47.1111,-97.2073,civil,945,Arthur,Arthur,North Dakota,United States
1A3,35.0162,-84.3463,civil,1067,Campbell,Copperhill,Tennessee,United States
1A5,35.2226,-83.419,civil,1341,Macon Co,Franklin,North Carolina,United States
1A6,36.6106,-83.7374,civil,1106,Middlesboro-Bell Co,Middlesboro,Kentucky,United States
1A7,36.3973,-85.6416,civil,1067,Jackson Co,Gainesboro,Tennessee,United States
1A8,40.578,-119.353,civil,2115,Empire,Empire,Nevada,United States
1A9,32.4388,-86.5104,civil,1066,Autauga Co,Prattville,Alabama,United States
1AK1,67.3729,-152.016,civil,686,Crevice Creek,Crevice Creek,Alaska,United States
1AK2,62.4009,-146.013,civil,354,Crosswind Lake,Crosswind Lake,Alaska,United States
1AK3,56.006,-160.561,civil,1067,Port Moller Air Force Station,Cold Bay,Alaska,United States
1AK4,60.5242,-150.752,civil,640,Rotor Air,Soldotna,Alaska,United States
1AK6,61.9792,-151.167,civil,549,Talachulitna River,Skwentna,Alaska,United States
1AK7,61.2503,-149.3,civil,518,Hardee Field,Eagle River,Alaska,United States
1AL2,33.2486,-86.5975,civil,884,Tri-L Acres,Columbiana,Alabama,United States
1AL4,30.5447,-87.5594,civil,732,Elsanor,Robertsdale,Alabama,United States
1AL5,30.6364,-87.7478,civil,396,Berry Field,Loxley,Alabama,United States
1AL8,33.6111,-86.4744,civil,610,Moore Field,Moody,Alabama,United States
1AL9,33.3478,-87.6019,water,999,Lake Tuscaloosa,Northport,Alabama,United States
1AR0,35.3987,-91.1335,civil,1247,Breckenridge,Beedeville,Arkansas,United States
1AR1,34.5272,-91.8727,civil,762,Walls,Coy,Arkansas,United States
1AR2,34.9868,-91.5503,civil,805,Taylor Airstrip,Des Arc,Arkansas,United States
1AR3,34.9732,-91.526,civil,792,Bob Norman Airstrip,Des Arc,Arkansas,United States
1AR4,36.0179,-94.0184,civil,671,Foggy River,Elkins,Arkansas,United States
1AR5,35.216,-94.3166,civil,488,Woodhull,Greenwood,Arkansas,United States
1AR6,35.5033,-92.1967,civil,792,Diamond Bluff,Greer Ferry,Arkansas,United States
1AR8,35.3257,-94.1868,civil,488,Flying W Air Park Inc,Lavaca,Arkansas,United States
1AR9,34.8139,-92,civil,762,Country Air Estates,Lonoke,Arkansas,United States
1AZ0,33.1119,-112.269,civil,1372,Mobile,Mobile,Arizona,United States
1AZ2,33.4117,-112.182,civil,732,Paradise Air Park,Tolleson,Arizona,United States
1AZ8,35.2958,-114.373,civil,792,Willow Springs Ranch,Bullhead City,Arizona,United States
1AZ9,32.5845,-110.851,civil,1295,Biosphere 2 Landing Field,Oracle,Arizona,United States
1B0,45.0084,-69.2398,civil,1402,Dexter Regl,Dexter,Maine,United States
1B1,42.2913,-73.7103,civil,1631,Columbia Co,Hudson,New York,United States
1B2,41.3585,-70.5245,civil,2835,Katama,Edgartown,Massachusetts,United States
1B3,43.6153,-73.2746,civil,631,Fair Haven Mun,Fair Haven,Vermont,United States
1B4,43.1347,-75.6489,civil,2124,Kamp,Durhamville,New York,United States
1B5,44.1959,-71.7495,civil,703,Franconia,Franconia,New Hampshire,United States
1B6,42.1065,-71.5101,civil,967,Hopedale Industrial Park,Hopedale,Massachusetts,United States
1B8,43.0501,-73.3662,civil,1311,Chaplin,Cambridge,New York,United States
1B9,42.0001,-71.1968,civil,1736,Mansfield Mun,Mansfield,Massachusetts,United States
1C1,40.449,-88.1277,civil,1039,Paxton,Paxton,Illinois,United States
1C2,41.4798,-87.9213,civil,1560,Howell-New Lenox,New Lenox,Illinois,United States
1C3,43.2542,-73.4709,civil,732,Argyle,Argyle,New York,United States
1C4,39.5737,-75.8658,water,999,Raintree Airpark,Elkton,Maryland,United States
1C5,41.696,-88.1292,civil,1025,Clow Intl,Bolingbrook,Illinois,United States
1C8,42.2917,-89.1362,civil,774,Cottonwood,Rockford,Illinois,United States
1C9,36.9533,-121.465,civil,762,Frazier Lake,Hollister,California,United States
1CA1,35.468,-119.722,civil,1707,Belridge Strip,South Belridge,California,United States
1CA4,33.8695,-114.527,civil,686,Aha-Quin,Blythe,California,United States
1CA6,32.7651,-116.723,civil,713,On The Rocks,Alpine,California,United States
1CL1,34.7941,-118.278,civil,884,Little Buttes Antique Airfield,Lancaster,California,United States
1CL2,34.9425,-118.17,civil,975,Pontious,Mojave,California,United States
1CO2,38.1625,-108.34,civil,762,Williams Ranch,Norwood,Colorado,United States
1CO3,40.7041,-104.798,civil,2438,Bellmore Farms,Nunn,Colorado,United States
1CO4,38.575,-107.959,civil,1006,Clifford Field,Olathe,Colorado,United States
1CO5,40.3889,-106.853,civil,396,Sidney Peak Ranch,Steamboat Springs,Colorado,United States
1CO7,38.5514,-105.992,civil,183,Dodsworth,Salida,Colorado,United States
1CO8,39.5292,-104.658,civil,671,Everitt,Parker,Colorado,United States
1D1,45.2305,-96.566,civil,2316,Milbank Mun,Milbank,South Dakota,United States
1D2,42.35,-83.4583,civil,779,Canton-Plymouth-Mettetal,Plymouth,Michigan,United States
1D3,43.4033,-98.8295,civil,945,Platte Mun,Platte,South Dakota,United States
1D4,40.9926,-81.4318,civil,706,Mayfield,Akron,Ohio,United States
1D5,43.0292,-75.8455,civil,841,Luther,Chittenango,New York,United States
1D6,44.7311,-94.7147,civil,1633,Hector Mun,Hector,Minnesota,United States
1D7,45.2933,-97.5137,civil,1798,The Sigurd Anderson,Webster,South Dakota,United States
1D8,44.8625,-98.5295,civil,1798,Redfield Mun,Redfield,South Dakota,United States
1.00E+02,29.4502,-103.399,civil,1433,Terlingua Ranch,Alpine,Texas,United States
1.00E+04,35.142,-101.838,civil,1128,Palo Duro,Amarillo,Texas,United States
1.00E+07,35.065,-101.879,civil,2164,Buffalo,Amarillo,Texas,United States
1.00E+08,44.3876,-75.0663,civil,671,Moores,Degrasse,New York,United States
1.00E+09,35.0653,-101.961,civil,1861,Maples,Canyon,Texas,United States
1F0,34.147,-97.1227,civil,1527,Ardmore Downtown Executive,Ardmore,Oklahoma,United States
1F1,34.0751,-97.1067,civil,762,Lake Murray State Park,Overbrook,Oklahoma,United States
1F2,43.2251,-74.1149,civil,1341,Plateau Sky Ranch,Edinburg,New York,United States
1F4,34.1404,-96.812,civil,917,Madill Mun,Madill,Oklahoma,United States
1F5,39.3694,-100.435,civil,1875,Hoxie-Sheridan Co,Hoxie,Kansas,United States
1F6,43.1167,-74.7496,civil,415,Dolgeville,Dolgeville,New York,United States
1F7,32.814,-96.3522,civil,802,Airpark East,Dallas,Texas,United States
1F9,33.1753,-97.8284,civil,1223,Bridgeport Mun,Bridgeport,Texas,United States
1FA1,28.8558,-82.5526,civil,549,Post Oak Ranch,Crystal River,Florida,United States
1FA3,26.6562,-82.1212,civil,823,Morning Star South,Fort Myers,Florida,United States
1FD0,30.7155,-85.0244,civil,701,Lawrence,Grand Ridge,Florida,United States
1FD1,29.2517,-81.0336,water,999,Halifax River,Holly Hill,Florida,United States
1FD2,30.6194,-83.304,civil,604,Bass Limited,Madison,Florida,United States
1FD4,26.4454,-81.6073,civil,1219,Schmidt Airstrip,Estero,Florida,United States
1FL0,28.1036,-81.8059,water,999,Garner Landing,Auburndale,Florida,United States
1FL3,30.0344,-82.7821,civil,792,Z Ranch,Lake City,Florida,United States
1FL5,30.3021,-85.8644,water,999,West Bay Creek,West Bay,Florida,United States
1G0,41.391,-83.6301,civil,2083,Wood Co,Bowling Green,Ohio,United States
1G1,41.3315,-82.1003,civil,929,Elyria,Elyria,Ohio,United States
1G2,44.7533,-95.556,civil,1129,Granite Falls Mun/Lenzen-Roe,Granite Falls,Minnesota,United States
1G3,41.1519,-81.4166,civil,2307,Kent State University,Kent,Ohio,United States
1G4,35.9922,-113.815,civil,1524,Grand Canyon West,Peach Springs,Arizona,United States
1G5,41.1314,-81.7649,civil,1956,Medina Mun,Medina,Ohio,United States
1G6,43.1817,-76.1278,civil,762,Michael,Cicero,New York,United States
1G8,40.4759,-80.6281,civil,691,Dew Meml,Toronto,Ohio,United States
1GA0,31.6394,-81.329,civil,1141,Eagle Neck,Shellman Bluff,Georgia,United States
1GA2,33.1773,-84.7485,civil,927,Flying N Estates,Luthersville,Georgia,United States
1GA4,32.3285,-81.7554,civil,610,Southern AG Aviation,Statesboro,Georgia,United States
1GA5,30.931,-83.3835,civil,1021,Shilo Farms,Hahira,Georgia,United States
1GA6,33.009,-84.1107,civil,549,De De,Barnesville,Georgia,United States
1GA8,31.1785,-83.2265,civil,914,South One Ten,Nashville,Georgia,United States
1GA9,33.7615,-83.6527,civil,610,Aerie,Monroe,Georgia,United States
1GE2,32.8444,-84.5439,civil,732,C & W Air Park,Woodland,Georgia,United States
1GE3,33.2539,-85.1703,civil,610,Answered Prayer,Franklin,Georgia,United States
1GE4,32.5011,-83.9333,civil,732,Beckley Farms,Fort Valley,Georgia,United States
1GE5,33.1012,-84.3935,civil,305,Flying D,Concord,Georgia,United States
1GE6,31.3724,-82.1235,civil,879,Forestry-Strip,Patterson,Georgia,United States
1GE7,33.5172,-83.4397,civil,914,Hay Field,Madison,Georgia,United States
1GE9,32.7144,-84.7181,civil,884,Bowick's Landing,Waverly Hall,Georgia,United States
1H0,38.7275,-90.5083,civil,2025,Creve Coeur,St Louis,Missouri,United States
1H1,43.2051,-76.1788,civil,1149,Airlane Enterprises,Clay,New York,United States
1H2,39.0704,-88.5335,civil,3626,Effingham Co Meml,Effingham,Illinois,United States
1H3,38.4715,-91.8153,civil,1036,Linn State Tech College,Linn,Missouri,United States
1H4,42.4167,-74.0162,civil,549,Greenville-Rainbow,Greenville,New York,United States
1H5,36.9896,-91.9541,civil,1067,Willow Springs Meml,Willow Springs,Missouri,United States
1H6,36.139,-95.825,civil,1573,Young,Tulsa,Oklahoma,United States
1H8,39.3025,-88.0041,civil,1818,Casey Mun,Casey,Illinois,United States
1I1,44.2209,-73.7913,civil,668,Marcy Field,Keene,New York,United States
1I3,39.0445,-87.0055,civil,686,Shawnee,Bloomfield,Indiana,United States
1I5,42.3643,-74.066,civil,693,Freehold,Freehold,New York,United States
1I7,39.7125,-87.4014,civil,1143,Clinton,Clinton,Indiana,United States
1I8,40.5709,-85.8917,civil,520,Converse,Converse,Indiana,United States
1I9,40.5428,-86.6817,civil,881,Delphi Mun,Delphi,Indiana,United States
1IA0,40.8972,-94.7911,civil,610,Brown Truck Sales,Corning,Iowa,United States
1IA4,41.0555,-94.3947,civil,305,Wallace Field,Creston,Iowa,United States
1IA6,40.885,-95.4853,civil,434,Aero-Lane,Randolph,Iowa,United States
1IA9,43.0677,-93.9022,civil,975,Newbrough,Britt,Iowa,United States
1II0,39.5767,-85.5878,civil,518,Webster,Homer,Indiana,United States
1II2,40.6158,-84.8348,civil,610,Adams,Geneva,Indiana,United States
1II3,38.957,-87.3942,civil,488,Davis,Carlisle,Indiana,United States
1II4,38.1251,-86.1622,civil,320,Amy,Corydon,Indiana,United States
1II5,41.2473,-86.5031,civil,579,Van De Mark,Culver,Indiana,United States
1II8,39.8142,-85.8189,civil,366,Morris,Greenfield,Indiana,United States
1IL0,40.775,-89.0011,civil,808,Barnstorm Field,El Paso,Illinois,United States
1IL1,39.2445,-89.4259,civil,640,Horsefeathers Ranch,Irving,Illinois,United States
1IL2,40.347,-89.4707,civil,402,Hobby Hideaway Rla,Delavan,Illinois,United States
1IL4,38.4187,-90.1312,civil,792,Heitman Aerdrome,Millstadt,Illinois,United States
1IL5,41.3359,-90.7882,civil,488,Goode,Buffalo Prairie,Illinois,United States
1IL6,41.8667,-89.4418,civil,427,Bally's Strip,Dixon,Illinois,United States
1IL8,40.932,-87.5959,civil,774,Loy,Donovan,Illinois,United States
1IL9,40.2997,-89.1272,civil,732,Holland Field,McLean,Illinois,United States
1IN0,40.1334,-85.2305,civil,957,Belknap-Icarus Acres,Parker City,Indiana,United States
1IN1,39.4884,-86.6531,civil,213,Shearer,Lewisville,Indiana,United States
1IN3,41.0978,-85.2425,civil,610,Kelly's Patch,Arcola,Indiana,United States
1IN4,38.1431,-85.9878,civil,274,Robinson Airpark,Elizabeth,Indiana,United States
1IN5,38.2848,-87.382,civil,671,Bottoms Brothers,Somerville,Indiana,United States
1IN6,40.4017,-87.2203,civil,762,Cottingham,Pine Village,Indiana,United States
1IN7,41.3989,-85.7014,water,999,Lake Wawasee,Syracuse,Indiana,United States
1IS0,38.5242,-89.9323,civil,402,Harold Emmerich,Belleville,Illinois,United States
1IS2,39.8964,-88.5223,civil,724,Triple Creek,Bement,Illinois,United States
1IS3,39.7278,-89.0595,civil,695,Cribbet,Blue Mound,Illinois,United States
1IS4,42.1345,-89.8246,civil,610,Swan Valley Farm,Lanark,Illinois,United States
1IS5,41.6531,-89.0015,civil,488,Walder's Farm,Paw Paw,Illinois,United States
1J0,30.8458,-85.6014,civil,1222,Tri Co,Bonifay,Florida,United States
1J6,29.1044,-81.3137,civil,1006,Lee,De Land,Florida,United States
1J9,30.4063,-86.8291,civil,701,Ft Walton Beach,Navarre,Florida,United States
1K0,44.3681,-75.4024,civil,768,Hendricks,Gouverneur,New York,United States
1K1,37.7779,-97.1135,civil,797,Benton,Benton,Kansas,United States
1K2,34.8501,-97.5864,civil,914,Lindsay Mun,Lindsay,Oklahoma,United States
1K3,37.5606,-97.2337,civil,762,Hamilton,Derby,Kansas,United States
1K4,35.1551,-97.4704,civil,1467,Perry,Goldsby,Oklahoma,United States
1K5,36.5667,-98.8523,civil,1067,Waynoka Mun,Waynoka,Oklahoma,United States
1K6,38.3733,-98.5951,civil,1433,Ellinwood Mun,Ellinwood,Kansas,United States
1K7,37.5792,-95.8378,civil,1396,Fredonia,Fredonia,Kansas,United States
1K8,36.5417,-95.0211,civil,899,Craig Co South Grand Lake,Ketchum,Oklahoma,United States
1K9,37.4542,-100.992,civil,991,Satanta Mun,Satanta,Kansas,United States
1KC,64.4244,-156.843,civil,1219,Kalakaket Creek AS,Kalakaket Creek,Alaska,United States
1KS0,38.1695,-97.9712,civil,823,Huey,Hutchinson,Kansas,United States
1KS1,38.4589,-95.2261,civil,610,Cochran,Richmond,Kansas,United States
1KS2,39.314,-95.0716,civil,457,Risky,Easton,Kansas,United States
1KS3,39.3042,-96.7586,civil,640,Leo's Place,Riley,Kansas,United States
1KS5,39.1625,-96.0964,civil,671,Keyser,St Marys,Kansas,United States
1KS6,38.8667,-97.5364,civil,762,Silers Plane Valley,Salina,Kansas,United States
1KS7,37.6736,-101.017,civil,1067,Hitch Feeders Ii Inc.,Satanta,Kansas,United States
1KS8,38.5153,-100.995,civil,1524,Buehler,Scott City,Kansas,United States
1KS9,39.0456,-94.949,civil,457,Huff,Bonner Springs,Kansas,United States
1KY7,37.8325,-84.1808,civil,610,Jordan Hill Farm,Richmond,Kentucky,United States
1KY8,39.0819,-84.7569,civil,549,Ty Combs Field,Hebron,Kentucky,United States
1KY9,38.0206,-85.8458,civil,457,Knob Creek,Shepherdsville,Kentucky,United States
1L0,30.087,-90.5826,civil,1222,St John The Baptist Parish,Reserve,Louisiana,United States
1L1,37.7875,-114.422,civil,1408,Lincoln Co,Panaca,Nevada,United States
1L3,35.4444,-114.909,civil,1536,Searchlight,Searchlight,Nevada,United States
1L4,35.3055,-114.883,civil,1262,Kidwell,Cal Nev Ari,Nevada,United States
1L7,37.7453,-111.57,civil,1524,Escalante Mun,Escalante,Utah,United States
1L8,37.1389,-113.306,civil,1039,Hurricane,Hurricane,Utah,United States
1L9,37.8597,-112.816,civil,1524,Parowan,Parowan,Utah,United States
1LA0,30.0169,-92.5279,civil,853,Ken Guidry Nr 2,Gueydan,Louisiana,United States
1LA1,29.9835,-90.4348,civil,1219,Triche Field,Hahnville,Louisiana,United States
1LA3,30.0308,-92.8335,civil,1219,Goose Island,Hayes,Louisiana,United States
1LA4,29.1058,-90.1909,water,999,Bayou Fourchon,Leeville,Louisiana,United States
1LA5,30.7992,-92.0597,civil,579,Morrow Strip,Morrow,Louisiana,United States
1LL0,41.3292,-88.6001,civil,418,Boondox Field,Seneca,Illinois,United States
1LL2,41.3006,-88.6356,civil,853,Spring Brook,Seneca,Illinois,United States
1LL3,39.8167,-91.0335,civil,518,Dale A. Klassing,Liberty,Illinois,United States
1LL4,39.1834,-89.7001,civil,701,Sies Landing Area,Litchfield,Illinois,United States
1LL5,39.6598,-89.8876,civil,792,Park,Loami,Illinois,United States
1LL6,42.2281,-89.7382,civil,503,Janssen,Shannon,Illinois,United States
1LL7,41.3498,-89.7732,civil,610,Edwin G. Bennett,Sheffield,Illinois,United States
1LL8,40.7889,-87.5584,civil,598,Zoomer Field,Sheldon,Illinois,United States
1LS5,29.8033,-93.3346,civil,725,Cameron Airstrip,Cameron,Louisiana,United States
1LS8,31.6821,-91.4987,civil,1524,Summerell,Ferriday,Louisiana,United States
1M1,34.8339,-92.2579,civil,2278,North Little Rock Mun,North Little Rock,Arkansas,United States
1M2,33.1452,-90.5153,civil,915,Belzoni Mun,Belzoni,Mississippi,United States
1M3,34.9779,-86.8847,civil,823,Ardmore,Ardmore,Alabama,United States
1M4,34.2803,-87.6004,civil,1520,Posey,Haleyville,Alabama,United States
1M5,36.5929,-86.4769,civil,1526,Portland Mun,Portland,Tennessee,United States
1M6,36.8028,-87.1764,civil,893,Standard,Elkton,Kentucky,United States
1M7,36.5259,-88.9156,civil,823,Fulton,Fulton,Kentucky,United States
1M8,41.839,-71.0259,civil,655,Myricks,Berkley,Massachusetts,United States
1M9,36.8189,-87.9089,civil,1463,Lake Barkley State Park,Cadiz,Kentucky,United States
1MA5,42.279,-71.5478,civil,427,Unknown Field,Southborough,Massachusetts,United States
1MD1,38.569,-76.2863,civil,488,Big Oak Farm,Cambridge,Maryland,United States
1MD3,39.309,-75.9877,civil,549,Krastel Farms,Kennedyville,Maryland,United States
1MD8,39.6829,-77.0972,civil,579,Mayberry Run,Westminster/Silver Run,Maryland,United States
1MI0,46.0686,-83.7242,water,999,Ashman Island,Drummond Island,Michigan,United States
1MI1,46.7027,-88.9974,civil,610,Nikkila Farms,Mass,Michigan,United States
1MI3,45.1958,-84.3217,civil,1189,Black River Ranch,Onaway,Michigan,United States
1MI4,45.8389,-87.3224,civil,533,Ramsy Farm,Perronville,Michigan,United States
1MI5,42.6031,-83.8597,civil,747,Mckenzie's Landing,Howell,Michigan,United States
1MI6,46.3778,-84.3111,civil,1189,Rosedale,Sault Ste Marie,Michigan,United States
1MI7,44.3167,-84.0667,civil,549,Thompson,Selkirk,Michigan,United States
1MI8,44.8467,-83.6369,civil,1341,Vlachos Acres,Hubbard,Michigan,United States
1MI9,46.4722,-87.3501,civil,351,Southfork,Marquette,Michigan,United States
1MN0,46.0436,-96.5462,civil,792,Wetherbee Farm,Tenney,Minnesota,United States
1MN1,45.9733,-96.5642,civil,792,Beyer,Tenney,Minnesota,United States
1MN2,45.9382,-94.7607,civil,503,Hay Acres,Akiey,Minnesota,United States
1MN4,46.6222,-95.8364,water,999,Krueger Loon Lake,Vergas,Minnesota,United States
1MN5,44.8436,-93.74,civil,823,Molnau Airpark,Waconia,Minnesota,United States
1MN8,44.5258,-93.3269,civil,853,Sky Harbor Residential Airpark,Webster,Minnesota,United States
1MO,37.1207,-92.3112,civil,1092,Mountain Grove Meml,Mountain Grove,Missouri,United States
1MO2,38.5495,-94.4766,civil,640,Hart,Freeman,Missouri,United States
1MO3,39.9333,-94.0738,civil,975,Lake Viking,Gallatin,Missouri,United States
1MO4,39.8917,-93.8641,civil,732,Longwood Mfg Corp,Gallatin,Missouri,United States
1MO6,36.8362,-90.7223,civil,1524,Double S Ranch,Grandin,Missouri,United States
1MO7,40.3639,-91.9752,civil,488,Hines,Gorin,Missouri,United States
1MO8,38.2528,-92.803,civil,805,Sherlock Field,Gravois Mills,Missouri,United States
1MO9,37.4792,-93.8516,civil,914,Eagle's Point & Red Barn Village Arpk,Greenfield,Missouri,United States
1MS0,33.5998,-90.7812,civil,1128,Tapley,Shaw,Mississippi,United States
1MS2,32.9418,-89.9306,civil,732,Peterson,Goodman,Mississippi,United States
1MS6,34.7973,-89.9131,civil,914,Eagles Ridge,Hernando,Mississippi,United States
1MS8,32.9401,-88.5792,military,1920,Columbus AFB Aux Field,Shuqualak,Mississippi,United States
1MS9,31.0118,-90.9682,civil,838,Piker-Too,Centreville,Mississippi,United States
1MT0,45.0674,-111.297,civil,1219,Nine Quarter Circle Ranch,Gallatin Gateway,Montana,United States
1MT2,45.9431,-108.549,civil,305,Skyrider,Billings,Montana,United States
1MT3,46.5581,-112.412,civil,549,Wood Strip,Elliston,Montana,United States
1MT4,46.6885,-111.871,civil,402,Davis,Helena,Montana,United States
1MT6,46.3569,-113.51,civil,334,Bobcat Fld,Philipsburg,Montana,United States
1MT7,47.4211,-111.159,civil,945,Prill Field,Sand Coulee,Montana,United States
1MU0,37.1667,-93.5627,civil,803,Medcalf Field,Republic,Missouri,United States
1MU1,36.6667,-93.1543,water,999,Lake Taney Como,Rockaway Beach,Missouri,United States
1MU2,39.4439,-94.6641,civil,427,K-Farm,Ridgely,Missouri,United States
1MU4,38.6517,-93.7788,civil,792,Short Air,Warrensburg,Missouri,United States
1MU6,40.1108,-94.9689,civil,732,Simerly,Fillmore,Missouri,United States
1MU7,37.4653,-89.612,civil,305,Mooseberry,Jackson,Missouri,United States
1MU8,39.5542,-94.9986,civil,610,Church's Landing,Rushville,Missouri,United States
1N1,35.0945,-106.167,civil,1609,Sandia Airpark Estates East,Edgewood,New Mexico,United States
1N2,40.8279,-72.7487,civil,671,Spadaro,East Moriches,New York,United States
1N3,40.9715,-78.2429,civil,1021,Albert,Philipsburg,Pennsylvania,United States
1N4,39.2192,-74.7948,civil,1944,Woodbine Mun,Woodbine,New Jersey,United States
1N5,38.4126,-75.6102,civil,1661,Bennett,Salisbury,Maryland,United States
1N7,40.9712,-74.9975,civil,779,Blairstown,Blairstown,New Jersey,United States
1N9,40.5703,-75.4883,civil,2160,Allentown-Queen City Mun,Allentown,Pennsylvania,United States
1NA0,48.7322,-97.8895,civil,792,Bohn Airstrip,Mountain,North Dakota,United States
1NA4,46.5939,-103.514,civil,930,Logging Camp Ranch Airstrip,Amidon,North Dakota,United States
1NA5,46.625,-99.4504,civil,701,Gienger/Box Bar Ranch,Streeter,North Dakota,United States
1NA7,46.5794,-101.517,civil,518,Handegard Airstrip,Almont,North Dakota,United States
1NA8,46.6905,-100.095,civil,686,Preszler Airstrip,Braddock,North Dakota,United States
1NA9,47.0333,-102.496,civil,488,Myran Airstrip,Taylor,North Dakota,United States
1NC0,35.7221,-79.9414,civil,701,Delk's,Asheboro,North Carolina,United States
1NC3,36.1807,-76.1491,civil,762,Fletcher's,Elizabeth City,North Carolina,United States
1NC4,34.9954,-77.2577,civil,914,Bell Strip,Pollocksville,North Carolina,United States
1NC5,35.9332,-78.3486,civil,610,Riley Field,Bunn,North Carolina,United States
1NC6,35.056,-80.4501,civil,853,Arant,Wingate,North Carolina,United States
1NC7,35.7335,-76.6697,civil,1219,Donald's Air Park Inc.,Plymouth,North Carolina,United States
1NC8,35.2349,-79.582,civil,1158,Seven Lakes,West End,North Carolina,United States
1NC9,35.4497,-81.4264,civil,366,Northbrook International Ultraport,Cherryville,North Carolina,United States
1ND0,46.1917,-102.521,civil,2103,Erickson Fld,Hettinger,North Dakota,United States
1ND1,46.1792,-102.546,civil,1219,Fordahl,Hettinger,North Dakota,United States
1ND3,46.6477,-97.1306,civil,805,Andvik,Kindred,North Dakota,United States
1ND4,47.0583,-97.017,civil,1219,Walkinshaw,Argusville,North Dakota,United States
1ND6,45.9666,-98.1782,civil,884,Visto's,Ludden,North Dakota,United States
1ND7,46.8291,-97.267,civil,610,Dittmer,Lynchburg,North Dakota,United States
1ND9,46.9442,-100.939,civil,1219,Wachter Ranch Private,Mandan,North Dakota,United States
1NE0,42.3167,-100.417,civil,1372,Higgins Bros,Brownlee,Nebraska,United States
1NE1,41.2833,-100.05,civil,732,Paul Ridder Ranch,Callaway,Nebraska,United States
1NE2,41.325,-99.9171,civil,762,Witthuhn,Callaway,Nebraska,United States
1NE5,41.4061,-96.2856,civil,427,Sibbernsen,Washington,Nebraska,United States
1NE6,41.3408,-102.778,civil,1128,Miller Airstrip,Dalton,Nebraska,United States
1NK0,42.2973,-74.5482,civil,529,Roxbury Runway,Roxbury,New York,United States
1NK5,41.3615,-74.5243,civil,366,Westtown,Westtown,New York,United States
1NK6,44.4237,-73.7496,civil,732,Catalano Airfield,Wilmington,New York,United States
1NK7,43.4667,-75.2496,civil,853,Boonville Inc,Boonville,New York,United States
1NK8,42.1917,-75.8413,civil,1128,Chenango Bridge,Binghamton,New York,United States